[
  {
    "name": "Temasek Polytechnic",
    "description": "Public Development Shelter",
    "address": "Temasek Polytechnic, 21 Tampines Ave 1,  Singapore 529757",
    "postal_code": "529757"
  },
  {
    "name": "Construction Industry Training Institute",
    "description": "Public Development Shelter",
    "address":
      "Construction Industry Training Institute, 200 Braddell Road,  Singapore 5797",
    "postal_code": "579700"
  },
  {
    "name": "ITE - Bishan",
    "description": "Public Development Shelter",
    "address": "ITE - Bishan, 21 Bishan Street 14,  Singapore 579781",
    "postal_code": "579781"
  },
  {
    "name": "Revenue House",
    "description": "Public Development Shelter",
    "address": "Revenue House, 55 Newton Road ,  Singapore 307987",
    "postal_code": "307987"
  },
  {
    "name": "Nanyang Polytechnic",
    "description": "Public Development Shelter",
    "address": "Nanyang Polytechnic, 180 Ang Mo Kio Ave 8,  Singapore 569830",
    "postal_code": "569830"
  },
  {
    "name": "The Atrium @ Orchard carpark",
    "description": "Public Development Shelter",
    "address":
      "The Atrium @ Orchard carpark , 60 Orchard Road ,  Singapore 238889",
    "postal_code": "238889"
  },
  {
    "name": "Institute of Public Administration and Management",
    "description": "Public Development Shelter",
    "address":
      "Institute of Public Administration and Management , 31 North Buona Vista Road,  Singapore 275983",
    "postal_code": "275983"
  },
  {
    "name": "Fusionopolis (One North -carpark )",
    "description": "Public Development Shelter",
    "address": "Fusionopolis, 11 Ayer Rajah Avenue,  Singapore 138666",
    "postal_code": "138636"
  },
  {
    "name": "Bukit Batok CC",
    "description": "Community Centre CD Shelter",
    "address": "21 Bukit Batok Central,  Singapore 659959",
    "postal_code": "659959"
  },
  {
    "name": "Bukit Panjang CC",
    "description": "Community Centre CD Shelter",
    "address": "8 Pending Rd,  Singapore 678295",
    "postal_code": "678295"
  },
  {
    "name": "Choa Chu Kang CC",
    "description": "Community Centre CD Shelter",
    "address": "35 Teck Whye Ave,  Singapore 688892",
    "postal_code": "688892"
  },
  {
    "name": "Jurong Green CC",
    "description": "Community Centre CD Shelter",
    "address": "6 Jurong West Ave 1,  Singapore 649520",
    "postal_code": "649520"
  },
  {
    "name": "Hong Kah North CC",
    "description": "Community Centre CD Shelter",
    "address": "30 Bukit Batok Street 31,  Singapore 659440",
    "postal_code": "659440"
  },
  {
    "name": "Nee Soon East CC",
    "description": "Community Centre CD Shelter",
    "address": "1 Yishun Ave 9,  Singapore 768893",
    "postal_code": "768893"
  },
  {
    "name": "Punggol CC",
    "description": "Community Centre CD Shelter",
    "address": "3 Hougang Ave 6,  Singapore 538808",
    "postal_code": "538808"
  },
  {
    "name": "Tampines East CC",
    "description": "Community Centre CD Shelter",
    "address": "10 Tampines Street 23,  Singapore 529341",
    "postal_code": "529341"
  },
  {
    "name": "Tampines West CC",
    "description": "Community Centre CD Shelter",
    "address": "10 Tampines Street 81 ,  Singapore 529014",
    "postal_code": "529014"
  },
  {
    "name": "Ang Mo Kio CC",
    "description": "Community Centre CD Shelter",
    "address": "795 Ang Mo Kio Ave 1,  Singapore 569976",
    "postal_code": "569976"
  },
  {
    "name": "Teck Ghee CC",
    "description": "Community Centre CD Shelter",
    "address": "861 Ang Mo Kio Ave 10,  Singapore 569734",
    "postal_code": "569734"
  },
  {
    "name": "Telok Blangah CC",
    "description": "Community Centre CD Shelter",
    "address": "450 Telok Blangah Street 31,  Singapore 108943",
    "postal_code": "108943"
  },
  {
    "name": "Nanyang CC",
    "description": "Community Centre CD Shelter",
    "address": "60 Jurong West Street 91,  Singapore 649040",
    "postal_code": "649040"
  },
  {
    "name": "Bishan CC",
    "description": "Community Centre CD Shelter",
    "address": "51 Bishan Street 13,  Singapore 579799",
    "postal_code": "579799"
  },
  {
    "name": "Marine Parade CC",
    "description": "Community Centre CD Shelter",
    "address": "278 Marine Parade Road,  Singapore 449282",
    "postal_code": "449282"
  },
  {
    "name": "Ulu Pandan CC",
    "description": "Community Centre CD Shelter",
    "address": "170, Ghim Moh Road,  Singapore 279621",
    "postal_code": "279621"
  },
  {
    "name": "Toa Payoh West CC",
    "description": "Community Centre CD Shelter",
    "address": "200 Lorong 2 Toa Payoh,  Singapore 319642",
    "postal_code": "319642"
  },
  {
    "name": "Zheng Hua CC",
    "description": "Community Centre CD Shelter",
    "address": "1 Segar Road ,  Singapore 677738",
    "postal_code": "677738"
  },
  {
    "name": "Pasir Ris Elias CC",
    "description": "Community Centre CD Shelter",
    "address": "93 Pasir Ris Drive 3 ,  Singapore 519498",
    "postal_code": "519498"
  },
  {
    "name": "Braddell (North- South Line)",
    "description": "MRT Shelter",
    "address": "377 LORONG 1 TOA PAYOH, BRADDELL MRT STATION,  Singapore 3197",
    "postal_code": "319756"
  },
  {
    "name": "Newton (NSL)",
    "description": "MRT Shelter",
    "address": "49 Scotts Road,  Singapore 2282",
    "postal_code": "228234"
  },
  {
    "name": "Somerset (NSL)",
    "description": "MRT Shelter",
    "address": "1 SOMERSET ROAD, SOMERSET MRT STATION,  Singapore 2381",
    "postal_code": "238162"
  },
  {
    "name": "Raffles Place (NSL)",
    "description": "MRT Shelter",
    "address": "5 RAFFLES PLACE, RAFFLES PLACE MRT STATION,  Singapore 0486",
    "postal_code": "48618"
  },
  {
    "name": "City Hall (NSL)",
    "description": "MRT Shelter",
    "address": "150 NORTH BRIDGE ROAD, CITY HALL MRT STATION,  Singapore 1791",
    "postal_code": "179100"
  },
  {
    "name": "Tiong Bahru (East-West Line)",
    "description": "MRT Shelter",
    "address": "300 TIONG BAHRU ROAD, TIONG BAHRU MRT STATION,  Singapore 1687",
    "postal_code": "168731"
  },
  {
    "name": "Bugis (EWL)",
    "description": "MRT Shelter",
    "address": "220 VICTORIA STREET, BUGIS MRT STATION,  Singapore 1880",
    "postal_code": "188022"
  },
  {
    "name": "Lavender (EWL)",
    "description": "MRT Shelter",
    "address": "50 KALLANG ROAD, LAVENDER MRT STATION,  Singapore 2086",
    "postal_code": "208699"
  },
  {
    "name": "Marina Bay (NSL)",
    "description": "MRT Shelter",
    "address": "21 PARK STREET, MARINA BAY MRT STATION,  Singapore 0189",
    "postal_code": "18925"
  },
  {
    "name": "Buangkok (North-East Line)",
    "description": "MRT Shelter",
    "address": "10 SENGKANG CENTRAL, BUANGKOK MRT STATION,  Singapore 5450",
    "postal_code": "545061"
  },
  {
    "name": "Hougang (NEL)",
    "description": "MRT Shelter",
    "address": "80 HOUGANG CENTRAL, HOUGANG MRT STATION,  Singapore 5387",
    "postal_code": "538758"
  },
  {
    "name": "Kovan (NEL)",
    "description": "MRT Shelter",
    "address": "900 UPPER SERANGOON ROAD, KOVAN MRT STATION,  Singapore 5347",
    "postal_code": "534799"
  },
  {
    "name": "Serangoon (NEL)",
    "description": "MRT Shelter",
    "address": "21 SERANGOON CENTRAL, SERANGOON MRT STATION,  Singapore 5560",
    "postal_code": "556082"
  },
  {
    "name": "Woodleigh (NEL)",
    "description": "MRT Shelter",
    "address":
      "400 UPPER SERANGOON ROAD, WOODLEIGH MRT STATION,  Singapore 3476",
    "postal_code": "347695"
  },
  {
    "name": "Potong Pasir (NEL)",
    "description": "MRT Shelter",
    "address":
      "55 UPPER SERANGOON ROAD, POTONG PASIR MRT STATION,  Singapore 3476",
    "postal_code": "347694"
  },
  {
    "name": "Boon Keng (NEL)",
    "description": "MRT Shelter",
    "address": "900 SERANGOON ROAD, BOON KENG MRT STATION,  Singapore 3282",
    "postal_code": "328260"
  },
  {
    "name": "Farrer Park (NEL)",
    "description": "MRT Shelter",
    "address": "250 RACE COURSE ROAD, FARRER PARK MRT STATION,  Singapore 2187",
    "postal_code": "218703"
  },
  {
    "name": "Little India (NEL)",
    "description": "MRT Shelter",
    "address": "60 Bukit Timah Road,  Singapore 2299",
    "postal_code": "229900"
  },
  {
    "name": "Clarke Quay (NEL)",
    "description": "MRT Shelter",
    "address":
      "10 EU TONG SEN STREET, CLARKE QUAY MRT STATION,  Singapore 0598",
    "postal_code": "59815"
  },
  {
    "name": "Chinatown (NEL)",
    "description": "MRT Shelter",
    "address": "151 NEW BRIDGE ROAD, CHINATOWN MRT STATION,  Singapore 0594",
    "postal_code": "59443"
  },
  {
    "name": "Outram Park (NEL)",
    "description": "MRT Shelter",
    "address":
      "300 EU TONG SEN STREET, OUTRAM PARK MRT STATION,  Singapore 0598",
    "postal_code": "59816"
  },
  {
    "name": "Habourfront (NEL)",
    "description": "MRT Shelter",
    "address":
      "81 TELOK BLANGAH ROAD, HARBOURFRONT MRT STATION,  Singapore 0988",
    "postal_code": "98867"
  },
  {
    "name": "Bartley (Circle Line)",
    "description": "MRT Shelter",
    "address": "90 BARTLEY ROAD, BARTLEY MRT STATION,  Singapore 5397",
    "postal_code": "539788"
  },
  {
    "name": "Lorong Chuan (CCL)",
    "description": "MRT Shelter",
    "address":
      "150 SERANGOON AVENUE 3, LORONG CHUAN MRT STATION,  Singapore 5545",
    "postal_code": "554533"
  },
  {
    "name": "Bishan (CCL)",
    "description": "MRT Shelter",
    "address": "200 BISHAN ROAD, BISHAN MRT STATION,  Singapore 5798",
    "postal_code": "579827"
  },
  {
    "name": "Mountbatten (CCL)",
    "description": "MRT Shelter",
    "address": "301 MOUNTBATTEN ROAD, MOUNTBATTEN MRT STATION,  Singapore 3980",
    "postal_code": "398006"
  },
  {
    "name": "Dakota (CCL)",
    "description": "MRT Shelter",
    "address": "201 OLD AIRPORT ROAD, DAKOTA MRT STATION,  Singapore 3979",
    "postal_code": "397973"
  },
  {
    "name": "Macpherson (CCL)",
    "description": "MRT Shelter",
    "address": "10 CIRCUIT LINK, MACPHERSON MRT STATION,  Singapore 3789",
    "postal_code": "378956"
  },
  {
    "name": "Caldecott (CCL)",
    "description": "MRT Shelter",
    "address": "38 TOA PAYOH RISE, CALDECOTT MRT STATION,  Singapore 2981",
    "postal_code": "298113"
  },
  {
    "name": "Botanic Gardens (CCL)",
    "description": "MRT Shelter",
    "address":
      "491 BUKIT TIMAH ROAD, BOTANIC GARDENS MRT STATION,  Singapore 2597",
    "postal_code": "259777"
  },
  {
    "name": "Buona Vista (CCL)",
    "description": "MRT Shelter",
    "address":
      "150 NORTH BUONA VISTA ROAD, BUONA VISTA MRT STATION,  Singapore 1393",
    "postal_code": "139350"
  },
  {
    "name": "Haw Par Villa (CCL)",
    "description": "MRT Shelter",
    "address":
      "270 PASIR PANJANG ROAD, HAW PAR VILLA MRT STATION,  Singapore 1173",
    "postal_code": "117396"
  },
  {
    "name": "Labrador Park (CCL)",
    "description": "MRT Shelter",
    "address":
      "701 TELOK BLANGAH ROAD, LABRADOR PARK MRT STATION,  Singapore 1090",
    "postal_code": "109029"
  },
  {
    "name": "Bukit Panjang (DTL2)",
    "description": "MRT Shelter",
    "address":
      "950 UPPER BUKIT TIMAH ROAD, BUKIT PANJANG MRT STATION,  Singapore 6782",
    "postal_code": "678213"
  },
  {
    "name": "Cashew (DTL2)",
    "description": "MRT Shelter",
    "address": "1 CASHEW ROAD, CASHEW MRT STATION,  Singapore 6796",
    "postal_code": "679696"
  },
  {
    "name": "Hillview (DTL2)",
    "description": "MRT Shelter",
    "address":
      "510 UPPER BUKIT TIMAH ROAD, HILLVIEW MRT STATION,  Singapore 6782",
    "postal_code": "678211"
  },
  {
    "name": "Beauty World (DTL2)",
    "description": "MRT Shelter",
    "address":
      "101 UPPER BUKIT TIMAH ROAD, BEAUTY WORLD MRT STATION,  Singapore 5882",
    "postal_code": "588216"
  },
  {
    "name": "King Albert Park (DTL2)",
    "description": "MRT Shelter",
    "address":
      "2 BLACKMORE DRIVE, KING ALBERT PARK MRT STATION,  Singapore 5999",
    "postal_code": "599987"
  },
  {
    "name": "Sixth Avenue (DTL2)",
    "description": "MRT Shelter",
    "address":
      "777 BUKIT TIMAH ROAD, SIXTH AVENUE MRT STATION,  Singapore 2697",
    "postal_code": "269784"
  },
  {
    "name": "Tan Kah Kee (DTL2)",
    "description": "MRT Shelter",
    "address": "651 BUKIT TIMAH ROAD, TAN KAH KEE MRT STATION,  Singapore 2662",
    "postal_code": "266268"
  },
  {
    "name": "Bishan St 23",
    "description": "HDB Public Shelter",
    "address": "Blk 212 Bishan St 23 #B1-257 S5702",
    "postal_code": "570212"
  },
  {
    "name": "Bishan St 23",
    "description": "HDB Public Shelter",
    "address": "Blk 213 Bishan St 23 #B1-235 S5702",
    "postal_code": "570213"
  },
  {
    "name": "Bishan St 23",
    "description": "HDB Public Shelter",
    "address": "Blk 214 Bishan Street 23 #B1-223 S5702",
    "postal_code": "570214"
  },
  {
    "name": "Bishan St 23",
    "description": "HDB Public Shelter",
    "address": "Blk 215 Bishan St 23 #B1-203 S5702",
    "postal_code": "570215"
  },
  {
    "name": "Bishan St 23",
    "description": "HDB Public Shelter",
    "address": "Blk 220 Bishan St 23 #B1-189 S5702",
    "postal_code": "570220"
  },
  {
    "name": "Bishan St 23",
    "description": "HDB Public Shelter",
    "address": "Blk 221 Bishan St 23 #B1-183 S5702",
    "postal_code": "570221"
  },
  {
    "name": "Bishan St 23",
    "description": "HDB Public Shelter",
    "address": "Blk 222 Bishan St 23 #B1-169 S5702",
    "postal_code": "570222"
  },
  {
    "name": "Bishan St 23",
    "description": "HDB Public Shelter",
    "address": "Blk 223 Bishan St 23 #B1-145 S5702",
    "postal_code": "570223"
  },
  {
    "name": "Bishan St 23",
    "description": "HDB Public Shelter",
    "address": "Blk 224 Bishan Street 23 #B1-131 S5702",
    "postal_code": "570224"
  },
  {
    "name": "Bishan St 23",
    "description": "HDB Public Shelter",
    "address": "Blk 225 Bishan St 23 #B1-119 S5702",
    "postal_code": "570225"
  },
  {
    "name": "Bishan St 23",
    "description": "HDB Public Shelter",
    "address": "Blk 226 Bishan St 23 #B1-101 S5702",
    "postal_code": "570226"
  },
  {
    "name": "Bishan St 23",
    "description": "HDB Public Shelter",
    "address": "Blk 227 Bishan St 23 #B1-79 S5702",
    "postal_code": "570227"
  },
  {
    "name": "Bishan St 23",
    "description": "HDB Public Shelter",
    "address": "Blk 228 Bishan St 23 #B1-71 S5702",
    "postal_code": "570228"
  },
  {
    "name": "Bishan St 23",
    "description": "HDB Public Shelter",
    "address": "Blk 229 Bishan St 23 #B1-53 S5702",
    "postal_code": "570229"
  },
  {
    "name": "Bishan St 23",
    "description": "HDB Public Shelter",
    "address": "Blk 230 Bishan St 23 #B1-35 S5702",
    "postal_code": "570230"
  },
  {
    "name": "Bishan St 23",
    "description": "HDB Public Shelter",
    "address": "Blk 231 Bishan Street 23 #B1-05 S5702",
    "postal_code": "570231"
  },
  {
    "name": "Bishan St 22",
    "description": "HDB Public Shelter",
    "address": "Blk 232 Bishan St 22 #B1-112 S5702",
    "postal_code": "570232"
  },
  {
    "name": "Bishan St 22",
    "description": "HDB Public Shelter",
    "address": "Blk 233 Bishan St 22 #B1-134 S5702",
    "postal_code": "570233"
  },
  {
    "name": "Bishan St 22",
    "description": "HDB Public Shelter",
    "address": "Blk 234 Bishan St 22 #B1-118 S5702",
    "postal_code": "570234"
  },
  {
    "name": "Bishan St 22",
    "description": "HDB Public Shelter",
    "address": "Blk 235 Bishan Street 22 #B1-144 S5702",
    "postal_code": "570235"
  },
  {
    "name": "Bishan St 22",
    "description": "HDB Public Shelter",
    "address": "Blk 236 Bishan St 22 #B1-154 S5702",
    "postal_code": "570236"
  },
  {
    "name": "Bishan St 22",
    "description": "HDB Public Shelter",
    "address": "Blk 237 Bishan St 22 #B1-176 S5702",
    "postal_code": "570237"
  },
  {
    "name": "Bishan St 22",
    "description": "HDB Public Shelter",
    "address": "Blk 238 Bishan Street 22 #B1-228 S5702",
    "postal_code": "570238"
  },
  {
    "name": "Bishan St 22",
    "description": "HDB Public Shelter",
    "address": "Blk 239 Bishan St 22 #B1-202 S5702",
    "postal_code": "570239"
  },
  {
    "name": "Bishan St 22",
    "description": "HDB Public Shelter",
    "address": "Blk 241 Bishan St 22 #B1-236 S5702",
    "postal_code": "570241"
  },
  {
    "name": "Bishan St 22",
    "description": "HDB Public Shelter",
    "address": "Blk 242 Bishan St 22 #B1-266 S5702",
    "postal_code": "570242"
  },
  {
    "name": "Bishan St 22",
    "description": "HDB Public Shelter",
    "address": "Blk 243 Bishan St 22 #B1-274 S5702",
    "postal_code": "570243"
  },
  {
    "name": "Bishan St 22",
    "description": "HDB Public Shelter",
    "address": "Blk 245 Bishan St 22 #B1-320 S5702",
    "postal_code": "570245"
  },
  {
    "name": "Bishan St 22",
    "description": "HDB Public Shelter",
    "address": "Blk 246 Bishan Street 22 #B1-338 S5702",
    "postal_code": "570246"
  },
  {
    "name": "Bishan St 22",
    "description": "HDB Public Shelter",
    "address": "Blk 248 Bishan St 22 #B1-360 S5702",
    "postal_code": "570248"
  },
  {
    "name": "Bishan St 22",
    "description": "HDB Public Shelter",
    "address": "Blk 249 Bishan St 22 #B1-370 S5702",
    "postal_code": "570249"
  },
  {
    "name": "Bishan St 22",
    "description": "HDB Public Shelter",
    "address": "Blk 250 Bishan Street 22 #B1-384 S5702",
    "postal_code": "570250"
  },
  {
    "name": "Bishan St 22",
    "description": "HDB Public Shelter",
    "address": "Blk 251 Bishan St 22 #B1-408 S5702",
    "postal_code": "570251"
  },
  {
    "name": "Bishan St 22",
    "description": "HDB Public Shelter",
    "address": "Blk 253 Bishan Street 22 #B1-428 S5702",
    "postal_code": "570253"
  },
  {
    "name": "Bishan St 22",
    "description": "HDB Public Shelter",
    "address": "Blk 254 Bishan St 22 #B1-444 S5702",
    "postal_code": "570254"
  },
  {
    "name": "Bishan St 22",
    "description": "HDB Public Shelter",
    "address": "Blk 255 Bishan Street 22 #B1-462 S5702",
    "postal_code": "570255"
  },
  {
    "name": "Bishan St 22",
    "description": "HDB Public Shelter",
    "address": "Blk 256 Bishan St 22 #B1-472 S5702",
    "postal_code": "570256"
  },
  {
    "name": "Bishan St 22",
    "description": "HDB Public Shelter",
    "address": "Blk 257 Bishan St 22 #B1-327 S5702",
    "postal_code": "570257"
  },
  {
    "name": "Bishan St 22",
    "description": "HDB Public Shelter",
    "address": "Blk 259 Bishan St 22 #B1-309 S5702",
    "postal_code": "570259"
  },
  {
    "name": "Bishan St 22",
    "description": "HDB Public Shelter",
    "address": "Blk 260 Bishan St 22 #B1-295 S5702",
    "postal_code": "570260"
  },
  {
    "name": "Bishan St 22",
    "description": "HDB Public Shelter",
    "address": "Blk 261 Bishan St 22 #B1-229 S5702",
    "postal_code": "570261"
  },
  {
    "name": "Bishan St 22",
    "description": "HDB Public Shelter",
    "address": "Blk 262 Bishan St 22 #B1-287 S5702",
    "postal_code": "570262"
  },
  {
    "name": "Bishan St 24",
    "description": "HDB Public Shelter",
    "address": "Blk 264 Bishan St 24 #B1-114 S5702",
    "postal_code": "570264"
  },
  {
    "name": "Bishan St 24",
    "description": "HDB Public Shelter",
    "address": "Blk 268 Bishan St 24 #B1-170 S5702",
    "postal_code": "570268"
  },
  {
    "name": "Bishan St 24",
    "description": "HDB Public Shelter",
    "address": "Blk 269 Bishan St 24 #B1-192 S5702",
    "postal_code": "570269"
  },
  {
    "name": "Bishan St 24",
    "description": "HDB Public Shelter",
    "address": "Blk 270 Bishan St 24 #B1-198 S5702",
    "postal_code": "570270"
  },
  {
    "name": "Bishan St 24",
    "description": "HDB Public Shelter",
    "address": "Blk 271 Bishan North St 24 #B1-218 S5702",
    "postal_code": "570271"
  },
  {
    "name": "Bishan St 24",
    "description": "HDB Public Shelter",
    "address": "Blk 272 Bishan St 24 #B1-228 S5702",
    "postal_code": "570272"
  },
  {
    "name": "Bishan St 24",
    "description": "HDB Public Shelter",
    "address": "Blk 288 Bishan Street 24 #01-11 S5702",
    "postal_code": "570288"
  },
  {
    "name": "Bishan St 22",
    "description": "HDB Public Shelter",
    "address": "Blk 293 Bishan Street 22 #01-83 S5702",
    "postal_code": "570293"
  },
  {
    "name": "Holland Close",
    "description": "HDB Public Shelter",
    "address": "Blk 30A Holland Close #01-209 S2710",
    "postal_code": "271030"
  },
  {
    "name": "Holland Close",
    "description": "HDB Public Shelter",
    "address": "Blk 3A Holland Close #01-55 S2720",
    "postal_code": "272003"
  },
  {
    "name": "Boon keng Road",
    "description": "HDB Public Shelter",
    "address": "Blk 6 Boon Keng Road #01-52 S3300",
    "postal_code": "330006"
  },
  {
    "name": "George's Lane",
    "description": "HDB Public Shelter",
    "address": "Blk 4C St George's Lane #01-157 S3220",
    "postal_code": "322004"
  },
  {
    "name": "Cambridge Road",
    "description": "HDB Public Shelter",
    "address": "Blk 40 Cambridge Road #01-1",
    "postal_code": "210040"
  },
  {
    "name": "Queen's Close",
    "description": "HDB Public Shelter",
    "address": "Blk 21 Queen's Close #01-141 S1400",
    "postal_code": "140021"
  },
  {
    "name": "Jalan Rumah Tinggi",
    "description": "HDB Public Shelter",
    "address": "Blk 35 Jalan Rumah Tinggi #01-4",
    "postal_code": "150035"
  },
  {
    "name": "Jalan Rumah Tinggi",
    "description": "HDB Public Shelter",
    "address": "Blk 36 Jalan Rumah Tinggi #01-4",
    "postal_code": "150036"
  },
  {
    "name": "Stratmore Ave",
    "description": "HDB Public Shelter",
    "address": "Blk 82 Stratmore Ave #01-148 S1410",
    "postal_code": "141082"
  },
  {
    "name": "Redhill Lane",
    "description": "HDB Public Shelter",
    "address": "Blk 82 Redhill Lane #01-65 S1500",
    "postal_code": "150082"
  },
  {
    "name": "Bukit Merah View",
    "description": "HDB Public Shelter",
    "address": "Blk 125 Bukit Merah View #01-386 S1511",
    "postal_code": "151125"
  },
  {
    "name": "Clarence Lane",
    "description": "HDB Public Shelter",
    "address": "Blk 132 Clarence Lane #01-12 S1401",
    "postal_code": "140132"
  },
  {
    "name": "Kim Tian Road",
    "description": "HDB Public Shelter",
    "address": "Blk 123 Kim Tian Road #01-62 S1601",
    "postal_code": "160123"
  },
  {
    "name": "Toa Payoh Lor 1",
    "description": "HDB Public Shelter",
    "address": "Blk 172A Toa Payoh Lor 1 #01-1170 S3111",
    "postal_code": "311172"
  },
  {
    "name": "Toa Payoh Lorong 4",
    "description": "HDB Public Shelter",
    "address": "Blk 80A Toa Payoh Lorong 4 #01-454 S(31108",
    "postal_code": "311080"
  },
  {
    "name": "Toa Payoh Lorong 5",
    "description": "HDB Public Shelter",
    "address": "Blk 80B Toa Payoh Lorong 4 #01-440 S(31208",
    "postal_code": "312080"
  },
  {
    "name": "Toa Payoh Lorong 2",
    "description": "HDB Public Shelter",
    "address": "Blk 86 Toa Payoh Lor 2 #01-333 S3100",
    "postal_code": "310086"
  },
  {
    "name": "Toa Payoh Lorong 5",
    "description": "HDB Public Shelter",
    "address": "Blk 43 Toa Payoh Lor 5 #01-131 S3100",
    "postal_code": "310043"
  },
  {
    "name": "Toa Payoh Lorong 5",
    "description": "HDB Public Shelter",
    "address": "Blk 50 Toa Payoh Lor 5 #01-69 S3100",
    "postal_code": "310050"
  },
  {
    "name": "Whampoa Road",
    "description": "HDB Public Shelter",
    "address": "Blk 115 Whampoa Road #01-115 S3201",
    "postal_code": "320115"
  },
  {
    "name": "Bedok South Ave 2",
    "description": "HDB Public Shelter",
    "address": "Blk 10C Bedok South Ave 2 #01-562 S4620",
    "postal_code": "462010"
  },
  {
    "name": "Simei Street 5",
    "description": "HDB Public Shelter",
    "address": "Blk 243 Simei Street 5 #01-16 S5202",
    "postal_code": "520243"
  },
  {
    "name": "Simei St 1",
    "description": "HDB Public Shelter",
    "address": "Blk 256 Simei St 1 #01-517 S5202",
    "postal_code": "520256"
  },
  {
    "name": "Tampines St 32",
    "description": "HDB Public Shelter",
    "address": "Blk 302 Tampines St 32 #01-36 S5203",
    "postal_code": "520302"
  },
  {
    "name": "Tampines St 33",
    "description": "HDB Public Shelter",
    "address": "Blk 313 Tampines St 33 #01-26 S5203",
    "postal_code": "520313"
  },
  {
    "name": "Tampines St 33",
    "description": "HDB Public Shelter",
    "address": "Blk 316 Tampines St 33 #01-180 S5203",
    "postal_code": "520316"
  },
  {
    "name": "Tampines St 32",
    "description": "HDB Public Shelter",
    "address": "Blk 328 Tampines St 32 #01-362 S5203",
    "postal_code": "520328"
  },
  {
    "name": "Tampines St 32",
    "description": "HDB Public Shelter",
    "address": "Blk 333 Tampines Street 32 #01-536 S5203",
    "postal_code": "520333"
  },
  {
    "name": "Tampines St 33",
    "description": "HDB Public Shelter",
    "address": "Blk 338 Tampines St 33 #01-204 S5203",
    "postal_code": "520338"
  },
  {
    "name": "Tampines St 33",
    "description": "HDB Public Shelter",
    "address": "Blk 343 Tampines St 33 #01-318 S5203",
    "postal_code": "520343"
  },
  {
    "name": "Tampines St 33",
    "description": "HDB Public Shelter",
    "address": "Blk 345 Tampines St 33 #01-350 S5203",
    "postal_code": "520345"
  },
  {
    "name": "Tampines St 33",
    "description": "HDB Public Shelter",
    "address": "Blk 349 Tampines St 33 #01-434 S5203",
    "postal_code": "520349"
  },
  {
    "name": "Jalan Tenaga",
    "description": "HDB Public Shelter",
    "address": "Blk 645 Jalan Tenaga #01-105 S4106",
    "postal_code": "410645"
  },
  {
    "name": "Jalan Tenaga",
    "description": "HDB Public Shelter",
    "address": "Blk 651 Jalan Tenaga #01-04 S4106",
    "postal_code": "410651"
  },
  {
    "name": "Jalan Tenaga",
    "description": "HDB Public Shelter",
    "address": "Blk 655 Jalan Tenaga #01-94 S4106",
    "postal_code": "410655"
  },
  {
    "name": "Jalan Tenaga",
    "description": "HDB Public Shelter",
    "address": "Blk 660 Jalan Tenaga #01-134 S4106",
    "postal_code": "410660"
  },
  {
    "name": "Jalan Damai",
    "description": "HDB Public Shelter",
    "address": "Blk 661 Jalan Damai #01-129 S4106",
    "postal_code": "410661"
  },
  {
    "name": "Jalan Damai",
    "description": "HDB Public Shelter",
    "address": "Blk 671 Jalan Damai #01-03 S4106",
    "postal_code": "410671"
  },
  {
    "name": "Chai Chee Ave",
    "description": "HDB Public Shelter",
    "address": "Blk 29A Chai Chee Ave #01-74 S4610",
    "postal_code": "461029"
  },
  {
    "name": "Circuit Road",
    "description": "HDB Public Shelter",
    "address": "Blk 42 Circuit Road #01-531 S3700",
    "postal_code": "370042"
  },
  {
    "name": "Pipit Road",
    "description": "HDB Public Shelter",
    "address": "Blk 55 Pipit Road #01-04 S3700",
    "postal_code": "370055"
  },
  {
    "name": "Pasir Ris Street 11",
    "description": "HDB Public Shelter",
    "address": "Blk 136 Pasir Ris Street 11 #01-233 S5101",
    "postal_code": "510136"
  },
  {
    "name": "Pasir Ris Street 11",
    "description": "HDB Public Shelter",
    "address": "Blk 138 Pasir Ris St 11 #01-207 S5101",
    "postal_code": "510138"
  },
  {
    "name": "Pasir Ris St 13",
    "description": "HDB Public Shelter",
    "address": "Blk 148 Pasir Ris St 13 #01-24 S5101",
    "postal_code": "510148"
  },
  {
    "name": "Pasir Ris St 13",
    "description": "HDB Public Shelter",
    "address": "Blk 156 Pasir Ris St 13 #01-35 S5101",
    "postal_code": "510156"
  },
  {
    "name": "Pasir Ris St 11",
    "description": "HDB Public Shelter",
    "address": "Blk 185 Pasir Ris St 11 #01-60 S5101",
    "postal_code": "510185"
  },
  {
    "name": "Pasir Ris St 12",
    "description": "HDB Public Shelter",
    "address": "Blk 192 Pasir Ris Street 12 #01-06 S5101",
    "postal_code": "510192"
  },
  {
    "name": "Pasir Ris St 12",
    "description": "HDB Public Shelter",
    "address": "Blk 194 Pasir Ris Street 12 #01-76 S5101",
    "postal_code": "510194"
  },
  {
    "name": "Pasir Ris St 21",
    "description": "HDB Public Shelter",
    "address": "Blk 207 Pasir Ris St 21 #01-356 S5102",
    "postal_code": "510207"
  },
  {
    "name": "Pasir Ris St 21",
    "description": "HDB Public Shelter",
    "address": "Blk 212 Pasir Ris St 21 #01-226 S5102",
    "postal_code": "510212"
  },
  {
    "name": "Pasir Ris St 21",
    "description": "HDB Public Shelter",
    "address": "Blk 219/220 Pasir Ris St 21 #01-170 S5102",
    "postal_code": "510220"
  },
  {
    "name": "Pasir Ris St 21",
    "description": "HDB Public Shelter",
    "address": "Blk 221 Pasir Ris St 21 #01-116 S5102",
    "postal_code": "510221"
  },
  {
    "name": "Pasir Ris St 21",
    "description": "HDB Public Shelter",
    "address": "Blk 226 Pasir Ris St 21 #01-76 S5102",
    "postal_code": "510226"
  },
  {
    "name": "Pasir Ris St 21",
    "description": "HDB Public Shelter",
    "address": "Blk 230 Pasir Ris St 21 #01-44 S5102",
    "postal_code": "510230"
  },
  {
    "name": "Pasir Ris Drive 4",
    "description": "HDB Public Shelter",
    "address": "Blk 233 Pasir Ris Drive 4 #01-490 S5102",
    "postal_code": "510233"
  },
  {
    "name": "Pasir Ris St 21",
    "description": "HDB Public Shelter",
    "address": "Blk 247 Pasir Ris St 21 #01-145 S5102",
    "postal_code": "510247"
  },
  {
    "name": "Pasir Ris St 21",
    "description": "HDB Public Shelter",
    "address": "Blk 252 Pasir Ris St 21 #01-203 S5102",
    "postal_code": "510252"
  },
  {
    "name": "Pasir Ris St 21",
    "description": "HDB Public Shelter",
    "address": "Blk 273 Pasir Ris Street 21 #01-498 S5102",
    "postal_code": "510273"
  },
  {
    "name": "Pasir Ris Dr 6",
    "description": "HDB Public Shelter",
    "address": "Blk 448 Pasir Ris Dr 6 #B1-150 S5104",
    "postal_code": "510448"
  },
  {
    "name": "Pasir Ris Dr 6",
    "description": "HDB Public Shelter",
    "address": "Blk 450 Pasir Ris Dr 6 #B1-164 S5104",
    "postal_code": "510450"
  },
  {
    "name": "Pasir Ris Dr 6",
    "description": "HDB Public Shelter",
    "address": "Blk 451 Pasir Ris Dr 6 #B1-186 S5104",
    "postal_code": "510451"
  },
  {
    "name": "Pasir Ris Dr 6",
    "description": "HDB Public Shelter",
    "address": "Blk 452 Pasir Ris Dr 6 #B1-232 S5104",
    "postal_code": "510452"
  },
  {
    "name": "Pasir Ris Dr 6",
    "description": "HDB Public Shelter",
    "address": "Blk 453 Pasir Ris Drive 6 #B1-222 S5104",
    "postal_code": "510453"
  },
  {
    "name": "Pasir Ris Dr 6",
    "description": "HDB Public Shelter",
    "address": "Blk 454 Pasir Ris Dr 6 #B1-210 S5104",
    "postal_code": "510454"
  },
  {
    "name": "Pasir Ris Dr 6",
    "description": "HDB Public Shelter",
    "address": "Blk 472 Pasir Ris Dr 6 #B1-458 S5104",
    "postal_code": "510472"
  },
  {
    "name": "Pasir Ris Dr 6",
    "description": "HDB Public Shelter",
    "address": "Blk 473 Pasir Ris Dr 6 #B1-498 S5104",
    "postal_code": "510473"
  },
  {
    "name": "Pasir Ris Dr 6",
    "description": "HDB Public Shelter",
    "address": "Blk 474 Pasir Ris Dr 6 #B1-568 S5104",
    "postal_code": "510474"
  },
  {
    "name": "Pasir Ris Dr 6",
    "description": "HDB Public Shelter",
    "address": "Blk 475 Pasir Ris Dr 6 #B1-544 S5104",
    "postal_code": "510475"
  },
  {
    "name": "Pasir Ris Dr 6",
    "description": "HDB Public Shelter",
    "address": "Blk 476 Pasir Ris Dr 6 #B1-538 S5104",
    "postal_code": "510476"
  },
  {
    "name": "Pasir Ris Dr 6",
    "description": "HDB Public Shelter",
    "address": "Blk 477 Pasir Ris Dr 6 #B1-520 S5104",
    "postal_code": "510477"
  },
  {
    "name": "Pasir Ris Dr 4",
    "description": "HDB Public Shelter",
    "address": "Blk 482 Pasir Ris Dr 4 #B1-395 S5104",
    "postal_code": "510482"
  },
  {
    "name": "Pasir Ris Dr 6",
    "description": "HDB Public Shelter",
    "address": "Blk 483 Pasir Ris Dr 6 #B1-477 S5104",
    "postal_code": "510483"
  },
  {
    "name": "Pasir Ris St 51",
    "description": "HDB Public Shelter",
    "address": "Blk 560 Pasir Ris St 51 #01-235 S5105",
    "postal_code": "510560"
  },
  {
    "name": "Pasir Ris St 52",
    "description": "HDB Public Shelter",
    "address": "Blk 501 Pasir Ris St 52 #01-213 S5105",
    "postal_code": "510561"
  },
  {
    "name": "Pasir Ris St 52",
    "description": "HDB Public Shelter",
    "address": "Blk 506 Pasir Ris St 52 #01-189 S5105",
    "postal_code": "510506"
  },
  {
    "name": "Pasir Ris St 52",
    "description": "HDB Public Shelter",
    "address": "Blk 515 Pasir Ris St 52 #01-81 S5105",
    "postal_code": "510515"
  },
  {
    "name": "Pasir Ris St 52",
    "description": "HDB Public Shelter",
    "address": "Blk 520 Pasir Ris St 52 #01-13 S5105",
    "postal_code": "510520"
  },
  {
    "name": "Pasir Ris St 53",
    "description": "HDB Public Shelter",
    "address": "Blk 570 Pasir Ris St 53 #01-64 S5105",
    "postal_code": "510570"
  },
  {
    "name": "Pasir Ris St 53",
    "description": "HDB Public Shelter",
    "address": "Blk 571 Pasir Ris Street 53 #01-18 S5105",
    "postal_code": "510571"
  },
  {
    "name": "Pasir Ris St 53",
    "description": "HDB Public Shelter",
    "address": "Blk 585 Pasir Ris Street 53 #01-43 S5105",
    "postal_code": "510585"
  },
  {
    "name": "Elias Road",
    "description": "HDB Public Shelter",
    "address": "Blk 612 Elias Road #01-138 S5106",
    "postal_code": "510612"
  },
  {
    "name": "Elias Road",
    "description": "HDB Public Shelter",
    "address": "Blk 614 Elias Road #01-120 S5106",
    "postal_code": "510614"
  },
  {
    "name": "Elias Road",
    "description": "HDB Public Shelter",
    "address": "Blk 615 Elias Road #01-102 S5106",
    "postal_code": "510615"
  },
  {
    "name": "Pasir Ris Dr 3",
    "description": "HDB Public Shelter",
    "address": "Blk 626 Pasir Ris Dr 3 #01-302 S5106",
    "postal_code": "510626"
  },
  {
    "name": "Pasir Ris Dr 3",
    "description": "HDB Public Shelter",
    "address": "Blk 631 Pasir Ris Dr 3 #01-388 S5106",
    "postal_code": "510631"
  },
  {
    "name": "Pasir Ris Dr 1",
    "description": "HDB Public Shelter",
    "address": "Blk 634 Pasir Ris Dr 1 #01-608 S5106",
    "postal_code": "510634"
  },
  {
    "name": "Pasir Ris Dr 1",
    "description": "HDB Public Shelter",
    "address": "Blk 639 Pasir Ris Dr 1 #01-536 S5106",
    "postal_code": "510639"
  },
  {
    "name": "Pasir Ris Dr 10",
    "description": "HDB Public Shelter",
    "address": "Blk 644 Pasir Ris Dr 10 #01-20 S5106",
    "postal_code": "510644"
  },
  {
    "name": "Pasir Ris Dr 10",
    "description": "HDB Public Shelter",
    "address": "Blk 706 Pasir Ris Dr 10 #01-157 S5107",
    "postal_code": "510706"
  },
  {
    "name": "Pasir Ris St 72",
    "description": "HDB Public Shelter",
    "address": "Blk 716 Pasir Ris St 72 #01-09 S5107",
    "postal_code": "510716"
  },
  {
    "name": "Pasir Ris St 72",
    "description": "HDB Public Shelter",
    "address": "Blk 720 Pasir Ris St 72 #01-105 S5107",
    "postal_code": "510720"
  },
  {
    "name": "Pasir Ris Dr 10",
    "description": "HDB Public Shelter",
    "address": "Blk 739 Pasir Ris Dr 10 #01-11 S5107",
    "postal_code": "510739"
  },
  {
    "name": "Pasir Ris St 71",
    "description": "HDB Public Shelter",
    "address": "Blk 741 Pasir Ris St 71 #01-39 S5107",
    "postal_code": "510741"
  },
  {
    "name": "Pasir Ris St 71",
    "description": "HDB Public Shelter",
    "address": "Blk 750 Pasir Ris St 71 #01-10 S5107",
    "postal_code": "510750"
  },
  {
    "name": "Pasir Ris St 71",
    "description": "HDB Public Shelter",
    "address": "Blk 753 Pasir Ris St 71 #01-118 S5107",
    "postal_code": "510753"
  },
  {
    "name": "Pasir Ris St 71",
    "description": "HDB Public Shelter",
    "address": "Blk 760 Pasir Ris St 71 #01-202 S5107",
    "postal_code": "510760"
  },
  {
    "name": "Pasir Ris St 71",
    "description": "HDB Public Shelter",
    "address": "Blk 766 Pasir Ris St 71 #01-308 S5107",
    "postal_code": "510766"
  },
  {
    "name": "Pasir Ris St 71",
    "description": "HDB Public Shelter",
    "address": "Blk 775 Pasir Ris St 71 #01-402 S5107",
    "postal_code": "510775"
  },
  {
    "name": "Pasir Ris St 71",
    "description": "HDB Public Shelter",
    "address": "Blk 776 Pasir Ris Street 71 #01-412 S5107",
    "postal_code": "510776"
  },
  {
    "name": "Hougang St 21",
    "description": "HDB Public Shelter",
    "address": "Blk 221 Hougang St 21 #B1-100 S5302",
    "postal_code": "530221"
  },
  {
    "name": "Hougang St 21",
    "description": "HDB Public Shelter",
    "address": "Blk 221 Hougang St 21 #B1-68 S5302",
    "postal_code": "530221"
  },
  {
    "name": "Hougang St 21",
    "description": "HDB Public Shelter",
    "address": "Blk 222 Hougang St 21 #B1-134 S5302",
    "postal_code": "530222"
  },
  {
    "name": "Hougang Ave 9",
    "description": "HDB Public Shelter",
    "address": "Blk 925 Hougang Ave 9 #01-41 S5309",
    "postal_code": "530925"
  },
  {
    "name": "Hougang Ave 9",
    "description": "HDB Public Shelter",
    "address": "Blk 927 Hougang Ave 9 #01-69 S5309",
    "postal_code": "530927"
  },
  {
    "name": "Hougang Ave 6",
    "description": "HDB Public Shelter",
    "address": "Blk 422 Hougang Ave 6 #B1-122 S5304",
    "postal_code": "530422"
  },
  {
    "name": "Hougang Ave 6",
    "description": "HDB Public Shelter",
    "address": "Blk 423 Hougang Ave 6 #B1-102 S5304",
    "postal_code": "530423"
  },
  {
    "name": "Hougang Ave 6",
    "description": "HDB Public Shelter",
    "address": "Blk 424 Hougang Ave 6 #B1-74 S5304",
    "postal_code": "530424"
  },
  {
    "name": "Hougang Ave 6",
    "description": "HDB Public Shelter",
    "address": "Blk 425 Hougang Ave 6 #B1-62 S5304",
    "postal_code": "530424"
  },
  {
    "name": "Hougang Ave 6",
    "description": "HDB Public Shelter",
    "address": "Blk 426 Hougang Ave 6 #B1-46 S5304",
    "postal_code": "530424"
  },
  {
    "name": "Hougang Ave 6",
    "description": "HDB Public Shelter",
    "address": "Blk 428 Hougang Ave 6 #B1-12 S5304",
    "postal_code": "530428"
  },
  {
    "name": "Hougang Ave 8",
    "description": "HDB Public Shelter",
    "address": "Blk 468 Hougang Ave 8 #01-1510 S5304",
    "postal_code": "530468"
  },
  {
    "name": "Tampines St 71",
    "description": "HDB Public Shelter",
    "address": "Blk 702 Tampines St 71 #01-14 S5207",
    "postal_code": "520702"
  },
  {
    "name": "Tampines St 71",
    "description": "HDB Public Shelter",
    "address": "Blk 703 Tampines St 71 #01-34 S5207",
    "postal_code": "520703"
  },
  {
    "name": "Tampines St 71",
    "description": "HDB Public Shelter",
    "address": "Blk 708 Tampines St 71 #01-102 S5207",
    "postal_code": "520708"
  },
  {
    "name": "Tampines St 71",
    "description": "HDB Public Shelter",
    "address": "Blk 710 Tampines St 71 #01-134 S5207",
    "postal_code": "520710"
  },
  {
    "name": "Tampines St 72",
    "description": "HDB Public Shelter",
    "address": "Blk 717 Tampines St 72 #01-75 S5207",
    "postal_code": "520717"
  },
  {
    "name": "Tampines St 72",
    "description": "HDB Public Shelter",
    "address": "Blk 719 Tampines St 72 #01-37 S5207",
    "postal_code": "520719"
  },
  {
    "name": "Tampines St 71",
    "description": "HDB Public Shelter",
    "address": "Blk 730 Tampines Street 71 #01-61 S5207",
    "postal_code": "520730"
  },
  {
    "name": "Tampines St 72",
    "description": "HDB Public Shelter",
    "address": "Blk 735 Tampines Street 72 #01-04 S5207",
    "postal_code": "520735"
  },
  {
    "name": "Tampines St 72",
    "description": "HDB Public Shelter",
    "address": "Blk 741 Tampines Street 72 #01-74 S5207",
    "postal_code": "520741"
  },
  {
    "name": "Tampines St 82",
    "description": "HDB Public Shelter",
    "address": "Blk 842C Tampines St 82 #01-46 S5238",
    "postal_code": "523842"
  },
  {
    "name": "Tampines St 82",
    "description": "HDB Public Shelter",
    "address": "Blk 842G Tampines St 82 #01-96 S5218",
    "postal_code": "521842"
  },
  {
    "name": "Tampines St 82",
    "description": "HDB Public Shelter",
    "address": "Blk 856E/856F Tampines St 82 #01-208 S5258",
    "postal_code": "525856"
  },
  {
    "name": "Tampines St 24",
    "description": "HDB Public Shelter",
    "address": "Blk 230B Tampines St 24 #01-21 S5252",
    "postal_code": "525230"
  },
  {
    "name": "Tampines St 33",
    "description": "HDB Public Shelter",
    "address": "Blk 354 Tampines St 33 #01-530 S5203",
    "postal_code": "520354"
  },
  {
    "name": "Tampines St 33",
    "description": "HDB Public Shelter",
    "address": "Blk 357 Tampines St 33 #01-610 S5203",
    "postal_code": "520357"
  },
  {
    "name": "Tampines St 34",
    "description": "HDB Public Shelter",
    "address": "Blk 361 Tampines St 34 #01-401 S5203",
    "postal_code": "520361"
  },
  {
    "name": "Tampines St 34",
    "description": "HDB Public Shelter",
    "address": "Blk 364 Tampines St 34 #01-133 S5203",
    "postal_code": "520364"
  },
  {
    "name": "Tampines St 34",
    "description": "HDB Public Shelter",
    "address": "Blk 367 Tampines St 34 #01-77 S5203",
    "postal_code": "520367"
  },
  {
    "name": "Tampines St 34",
    "description": "HDB Public Shelter",
    "address": "Blk 374 Tampines St 34 #01-42 S5203",
    "postal_code": "520374"
  },
  {
    "name": "Tampines St 32",
    "description": "HDB Public Shelter",
    "address": "Blk 387 Tampines St 32 #01-87 S5203",
    "postal_code": "520387"
  },
  {
    "name": "Tampines Ave 7",
    "description": "HDB Public Shelter",
    "address": "Blk 393 Tampines Ave 7 #01-251 S5203",
    "postal_code": "520393"
  },
  {
    "name": "Tampines St 42",
    "description": "HDB Public Shelter",
    "address": "Blk 450A Tampines St 42 #01-356 S5214",
    "postal_code": "521450"
  },
  {
    "name": "Tampines St 42",
    "description": "HDB Public Shelter",
    "address": "Blk 450G Tampines St 42 #01-382 S5274",
    "postal_code": "527450"
  },
  {
    "name": "Tampines Ave 9",
    "description": "HDB Public Shelter",
    "address": "Blk 487A Tampines Ave 9 #B1-96 S5204",
    "postal_code": "520487"
  },
  {
    "name": "Tampines Street 45",
    "description": "HDB Public Shelter",
    "address": "Blk 487B Tampines Street 45 #B1-123 S5214",
    "postal_code": "521487"
  },
  {
    "name": "Tampines St 44",
    "description": "HDB Public Shelter",
    "address": "Blk 487C Tampines St 4497H5 #B1-103 S5224",
    "postal_code": "522487"
  },
  {
    "name": "Tampines St 45",
    "description": "HDB Public Shelter",
    "address": "Blk 488B Tampines St 45 #B1-147 S5214",
    "postal_code": "521488"
  },
  {
    "name": "Tampines St 45",
    "description": "HDB Public Shelter",
    "address": "Blk 491D/491E Tampines St 45 #01-224 S5234",
    "postal_code": "523491"
  },
  {
    "name": "Tampines Ave 9",
    "description": "HDB Public Shelter",
    "address": "Blk 492B Tampines Ave 9 #01-422 S5204",
    "postal_code": "520492"
  },
  {
    "name": "Tampines St 43",
    "description": "HDB Public Shelter",
    "address": "Blk 493D/493E Tampines St 43 #01-326 S5204",
    "postal_code": "520493"
  },
  {
    "name": "Tampines Ave 9",
    "description": "HDB Public Shelter",
    "address": "Blk 494B Tampines Ave 9 #01-458 S5204",
    "postal_code": "520494"
  },
  {
    "name": "Tampines Ave 9",
    "description": "HDB Public Shelter",
    "address": "Blk 496G Tampines Ave 9 #01-500 S5204",
    "postal_code": "520496"
  },
  {
    "name": "Tampines St 45",
    "description": "HDB Public Shelter",
    "address": "Blk 497C Tampines St 45 #01-54 S5224",
    "postal_code": "522497"
  },
  {
    "name": "Tampines St 45",
    "description": "HDB Public Shelter",
    "address": "Blk 497H Tampines St 45 #01-92 S5264",
    "postal_code": "526497"
  },
  {
    "name": "Tampines St 45",
    "description": "HDB Public Shelter",
    "address": "Blk 498A Tampines St 45 #01-360 S5204",
    "postal_code": "520498"
  },
  {
    "name": "Tampines St 45",
    "description": "HDB Public Shelter",
    "address": "Blk 498M Tampines St 45 #01-498 S5294",
    "postal_code": "529498"
  },
  {
    "name": "Tampines Ave 8",
    "description": "HDB Public Shelter",
    "address": "Blk 891 Tampines Ave 8 #01-82 S5208",
    "postal_code": "520891"
  },
  {
    "name": "Hougang Street 11",
    "description": "HDB Public Shelter",
    "address": "Blk 159 Hougang Street 11#01-17 S(53015",
    "postal_code": "530159"
  },
  {
    "name": "Hougang Ave 1",
    "description": "HDB Public Shelter",
    "address": "Blk 165 Hougang Ave 1 #01-1598 S5301",
    "postal_code": "530165"
  },
  {
    "name": "Hougang Central",
    "description": "HDB Public Shelter",
    "address": "Blk 836 Hougang Central #01-539 S5308",
    "postal_code": "530836"
  },
  {
    "name": "Hougang Central",
    "description": "HDB Public Shelter",
    "address": "Blk 837 Hougang Central #01-527 S5308",
    "postal_code": "530837"
  },
  {
    "name": "Serangoon North Ave 4",
    "description": "HDB Public Shelter",
    "address": "Blk 509 Serangoon North Ave 4 #01-360 S5505",
    "postal_code": "550509"
  },
  {
    "name": "Serangoon North Ave 4",
    "description": "HDB Public Shelter",
    "address": "Blk 512 Serangoon North Ave 4 #01-416 S5505",
    "postal_code": "550512"
  },
  {
    "name": "Serangoon North Ave 4",
    "description": "HDB Public Shelter",
    "address": "Blk 517 Serangoon North Ave 4 #B1-228 S5505",
    "postal_code": "550517"
  },
  {
    "name": "Serangoon North Ave 4",
    "description": "HDB Public Shelter",
    "address": "Blk 518 Serangoon North Ave 4 #B1-208 S5505",
    "postal_code": "550518"
  },
  {
    "name": "Serangoon North Ave 4",
    "description": "HDB Public Shelter",
    "address": "Blk 523 Serangoon North Ave 4 #B1-30 S5505",
    "postal_code": "550523"
  },
  {
    "name": "Serangoon North Ave 4",
    "description": "HDB Public Shelter",
    "address": "Blk 524 Serangoon North Ave 4 #B1-46 S5505",
    "postal_code": "550523"
  },
  {
    "name": "Serangoon North Ave 4",
    "description": "HDB Public Shelter",
    "address": "Blk 533 Serangoon North Ave 4 #B1-233, S5505",
    "postal_code": "550533"
  },
  {
    "name": "Serangoon North Ave 4",
    "description": "HDB Public Shelter",
    "address": "Blk 534 Serangoon North Ave 4 #B1-207 S5505",
    "postal_code": "550534"
  },
  {
    "name": "Serangoon North Ave 4",
    "description": "HDB Public Shelter",
    "address": "Blk 540 Serangoon North Ave 4 #B1-109 S5505",
    "postal_code": "550540"
  },
  {
    "name": "Serangoon North Ave 4",
    "description": "HDB Public Shelter",
    "address": "Blk 541 Serangoon North Ave 4 #B1-129 S5505",
    "postal_code": "550541"
  },
  {
    "name": "Serangoon North Ave 3",
    "description": "HDB Public Shelter",
    "address": "Blk 546 Serangoon North Ave 3 #01-226 S5505",
    "postal_code": "550546"
  },
  {
    "name": "Serangoon North Ave 3",
    "description": "HDB Public Shelter",
    "address": "Blk 548 Serangoon North Ave 3 #01-07 S5505",
    "postal_code": "550548"
  },
  {
    "name": "Serangoon North Ave 3",
    "description": "HDB Public Shelter",
    "address": "Blk 554 Serangoon North Ave 3 #01-85 S5505",
    "postal_code": "550554"
  },
  {
    "name": "Hougang St 91",
    "description": "HDB Public Shelter",
    "address": "Blk 911 Hougang St 91 #01-58 S5309",
    "postal_code": "530911"
  },
  {
    "name": "Hougang St 91",
    "description": "HDB Public Shelter",
    "address": "Blk 915 Hougang St 91 #01-10 S5309",
    "postal_code": "530915"
  },
  {
    "name": "Hougang Ave 9",
    "description": "HDB Public Shelter",
    "address": "Blk 916 Hougang Ave 9 #01-08 S5309",
    "postal_code": "530916"
  },
  {
    "name": "Hougang Ave 9",
    "description": "HDB Public Shelter",
    "address": "Blk 919 Hougang Ave 9 #01-459 S5309",
    "postal_code": "530919"
  },
  {
    "name": "Yishun Ring Road",
    "description": "HDB Public Shelter",
    "address": "Blk 310 Yishun Ring Road #01-1230 S7603",
    "postal_code": "760310"
  },
  {
    "name": "Ang Mo Kio Ave 4",
    "description": "HDB Public Shelter",
    "address": "Blk 617 Ang Mo Kio Ave 4 #01-1041 S5606",
    "postal_code": "560617"
  },
  {
    "name": "Ang Mo Kio Ave 4",
    "description": "HDB Public Shelter",
    "address": "Blk 619 Ang Mo Kio Ave 4 #01-1073 S5606",
    "postal_code": "560619"
  },
  {
    "name": "Hougang Ave 8",
    "description": "HDB Public Shelter",
    "address": "Blk 435 Hougang Ave 8 #B1-1679 S5304",
    "postal_code": "530435"
  },
  {
    "name": "Hougang Ave 8",
    "description": "HDB Public Shelter",
    "address": "Blk 436 Hougang Ave 8 #B1-1505 S5304",
    "postal_code": "530436"
  },
  {
    "name": "Hougang Ave 8",
    "description": "HDB Public Shelter",
    "address": "Blk 437 Hougang Ave 8 #B1-1521 S5304",
    "postal_code": "530437"
  },
  {
    "name": "Hougang Ave 8",
    "description": "HDB Public Shelter",
    "address": "Blk 439 Hougang Ave 8 #B1-1555 S5304",
    "postal_code": "530439"
  },
  {
    "name": "Hougang Ave 8",
    "description": "HDB Public Shelter",
    "address": "Blk 440 Hougang Ave 8 #B1-1567 S5304",
    "postal_code": "530440"
  },
  {
    "name": "Hougang Ave 8",
    "description": "HDB Public Shelter",
    "address": "Blk 444 Hougang Ave 8 #B1-1591 S5304",
    "postal_code": "530444"
  },
  {
    "name": "Hougang Ave 8",
    "description": "HDB Public Shelter",
    "address": "Blk 444 Hougang Ave 8 #B1-1599 S5304",
    "postal_code": "530444"
  },
  {
    "name": "Hougang Ave 8",
    "description": "HDB Public Shelter",
    "address": "Blk 445 Hougang Ave 8 #B1-1615 S5304",
    "postal_code": "530445"
  },
  {
    "name": "Hougang Ave 8",
    "description": "HDB Public Shelter",
    "address": "Blk 446 Hougang Ave 8 #B1-1635 S5304",
    "postal_code": "530446"
  },
  {
    "name": "Hougang Ave 10",
    "description": "HDB Public Shelter",
    "address": "Blk 447 Hougang Ave 10 #B1-517 S5304",
    "postal_code": "530447"
  },
  {
    "name": "Hougang Ave 10",
    "description": "HDB Public Shelter",
    "address": "Blk 448 Hougang Ave 10 #B1-529 S5304",
    "postal_code": "530448"
  },
  {
    "name": "Hougang Ave 10",
    "description": "HDB Public Shelter",
    "address": "Blk 449 Hougang Ave 10 #B1-509 S5304",
    "postal_code": "530449"
  },
  {
    "name": "Hougang Ave 10",
    "description": "HDB Public Shelter",
    "address": "Blk 450 Hougang Ave 10 #B1-541 S5304",
    "postal_code": "530450"
  },
  {
    "name": "Hougang Ave 10",
    "description": "HDB Public Shelter",
    "address": "Blk 451 Hougang Ave 10 #B1-553 S5304",
    "postal_code": "530451"
  },
  {
    "name": "Hougang Ave 10",
    "description": "HDB Public Shelter",
    "address": "Blk 452 Hougang Ave 10 #B1-565 S5304",
    "postal_code": "530452"
  },
  {
    "name": "Hougang Ave 10",
    "description": "HDB Public Shelter",
    "address": "Blk 453 Hougang Ave 10 #B1-583 S5304",
    "postal_code": "530453"
  },
  {
    "name": "Hougang St 52",
    "description": "HDB Public Shelter",
    "address": "Blk 534 Hougang St 52 #B1-32 S5305",
    "postal_code": "530534"
  },
  {
    "name": "Hougang St 52",
    "description": "HDB Public Shelter",
    "address": "Blk 535 Hougang Street 52 #B1-14 S5305",
    "postal_code": "530535"
  },
  {
    "name": "Hougang St 52",
    "description": "HDB Public Shelter",
    "address": "Blk 536 Hougang St 52 #B1-106 S5305",
    "postal_code": "530536"
  },
  {
    "name": "Hougang St 52",
    "description": "HDB Public Shelter",
    "address": "Blk 537 Hougang St 52 #B1-94 S5305",
    "postal_code": "530537"
  },
  {
    "name": "Hougang St 52",
    "description": "HDB Public Shelter",
    "address": "Blk 538 Hougang Street 52 #B1-84 S5305",
    "postal_code": "530538"
  },
  {
    "name": "Hougang St 52",
    "description": "HDB Public Shelter",
    "address": "Blk 539 Hougang St 52 #B1-48 S5305",
    "postal_code": "530539"
  },
  {
    "name": "Hougang Ave 8",
    "description": "HDB Public Shelter",
    "address": "Blk 540 Hougang Ave 8 #B1-1235 S5305",
    "postal_code": "530540"
  },
  {
    "name": "Hougang Ave 8",
    "description": "HDB Public Shelter",
    "address": "Blk 541 Hougang Ave 8 #B1-1215 S5305",
    "postal_code": "530541"
  },
  {
    "name": "Hougang St 51",
    "description": "HDB Public Shelter",
    "address": "Blk 552 Hougang St 51 #B1-214 S5305",
    "postal_code": "530552"
  },
  {
    "name": "Hougang St 51",
    "description": "HDB Public Shelter",
    "address": "Blk 553 Hougang St 51 #B1-270, S5305",
    "postal_code": "530553"
  },
  {
    "name": "Hougang St 51",
    "description": "HDB Public Shelter",
    "address": "Blk 570 Hougang St 51 #01-105 S5305",
    "postal_code": "530570"
  },
  {
    "name": "Hougang St 51",
    "description": "HDB Public Shelter",
    "address": "Blk 573 Hougang St 51 #01-21 S5305",
    "postal_code": "530573"
  },
  {
    "name": "Hougang Ave 4",
    "description": "HDB Public Shelter",
    "address": "Blk 580 Hougang Ave 4 #01-620 S5305",
    "postal_code": "530580"
  },
  {
    "name": "Woodlands Dr 40",
    "description": "HDB Public Shelter",
    "address": "Blk 702 Woodlands Dr 40 #01-88 S7307",
    "postal_code": "730702"
  },
  {
    "name": "Woodlands Dr 40",
    "description": "HDB Public Shelter",
    "address": "Blk 710 Woodlands Dr 40 #01-45 S7307",
    "postal_code": "730710"
  },
  {
    "name": "Woodlands Dr 40",
    "description": "HDB Public Shelter",
    "address": "Blk 711 Woodlands Dr 40 #01-65 S7307",
    "postal_code": "730711"
  },
  {
    "name": "Woodlands Dr 70",
    "description": "HDB Public Shelter",
    "address": "Blk 717 Woodlands Dr 70 #01-114 S7307",
    "postal_code": "730717"
  },
  {
    "name": "Woodlands Ave 6",
    "description": "HDB Public Shelter",
    "address": "Blk 718 Woodlands Ave 6 #01-684 S7307",
    "postal_code": "730718"
  },
  {
    "name": "Woodlands Circle",
    "description": "HDB Public Shelter",
    "address": "Blk 721 Woodlands Circle #01-122 S7307",
    "postal_code": "730721"
  },
  {
    "name": "Woodlands Ave 6",
    "description": "HDB Public Shelter",
    "address": "Blk 724 Woodlands Ave 6 #01-502 S7307",
    "postal_code": "730724"
  },
  {
    "name": "Woodlands Circle",
    "description": "HDB Public Shelter",
    "address": "Blk 729 Woodlands Circle #01-47 S7307",
    "postal_code": "730729"
  },
  {
    "name": "Woodlands Circle",
    "description": "HDB Public Shelter",
    "address": "Blk 738 Woodlands Circle #01-373 S7307",
    "postal_code": "730738"
  },
  {
    "name": "Woodlands Circle",
    "description": "HDB Public Shelter",
    "address": "Blk 740 Woodlands Circle #01-413 S7307",
    "postal_code": "730740"
  },
  {
    "name": "Woodlands Circle",
    "description": "HDB Public Shelter",
    "address": "Blk 743 Woodlands Circle #01-465 S7307",
    "postal_code": "730743"
  },
  {
    "name": "Woodlands Circle",
    "description": "HDB Public Shelter",
    "address": "Blk 747 Woodlands Circle #01-708 S7307",
    "postal_code": "730747"
  },
  {
    "name": "Woodlands Circle",
    "description": "HDB Public Shelter",
    "address": "Blk 749 Woodlands Circle #01-604 S7307",
    "postal_code": "730749"
  },
  {
    "name": "Woodlands Ave 4",
    "description": "HDB Public Shelter",
    "address": "Blk 756 Woodlands Ave 4 #01-283 S7307",
    "postal_code": "730756"
  },
  {
    "name": "Woodlands Ave 6",
    "description": "HDB Public Shelter",
    "address": "Blk 759 Woodlands Ave 6 #01-32 S7307",
    "postal_code": "730759"
  },
  {
    "name": "Woodlands Ave 6",
    "description": "HDB Public Shelter",
    "address": "Blk 763 Woodlands Ave 6 #01-70 S7307",
    "postal_code": "730763"
  },
  {
    "name": "Woodlands Ave 6",
    "description": "HDB Public Shelter",
    "address": "Blk 791 Woodlands Ave 6 #01-603 S7307",
    "postal_code": "730791"
  },
  {
    "name": "Woodlands Ave 7",
    "description": "HDB Public Shelter",
    "address": "Blk 792 Woodlands Ave 7 #01-675 S7307",
    "postal_code": "730792"
  },
  {
    "name": "Woodlands Dr 72",
    "description": "HDB Public Shelter",
    "address": "Blk 795 Woodlands Dr 72 #01-13 S7307",
    "postal_code": "730795"
  },
  {
    "name": "Boon Lay Drive",
    "description": "HDB Public Shelter",
    "address": "Blk 260 Boon Lay Drive #01-527 S6402",
    "postal_code": "640260"
  },
  {
    "name": "Boon Lay Drive",
    "description": "HDB Public Shelter",
    "address": "Blk 263 Boon Lay Drive #01-583 S6402",
    "postal_code": "640263"
  },
  {
    "name": "Bukit Batok West Ave 6",
    "description": "HDB Public Shelter",
    "address": "Blk 188 Bukit Batok West Ave 6 #01-07 S6501",
    "postal_code": "650188"
  },
  {
    "name": "Bukit Batok Central",
    "description": "HDB Public Shelter",
    "address": "Blk 625 Bukit Batok Central #01-386 S6506",
    "postal_code": "650625"
  },
  {
    "name": "Bukit Batok St 25",
    "description": "HDB Public Shelter",
    "address": "Blk 288C Bukit Batok St 25 #01-28 S6522",
    "postal_code": "652288"
  },
  {
    "name": "Bukit Batok St 25",
    "description": "HDB Public Shelter",
    "address": "Blk 289E Bukit Batok St 25 #01-160 S6542",
    "postal_code": "654289"
  },
  {
    "name": "Bukit Batok St 24",
    "description": "HDB Public Shelter",
    "address": "Blk 290A Bukit Batok St 24 #01-87 S6522",
    "postal_code": "652290"
  },
  {
    "name": "Bukit Batok East Ave 3",
    "description": "HDB Public Shelter",
    "address": "Blk 290D Bukit Batok East Ave 3 #01-370 S(65029",
    "postal_code": "650290"
  },
  {
    "name": "Bukit Batok",
    "description": "HDB Public Shelter",
    "address": "Blk 291B Bukit Batok #01-39 S6512",
    "postal_code": "651291"
  },
  {
    "name": "Bukit Batok East Ave 3",
    "description": "HDB Public Shelter",
    "address": "Blk 285 Bukit Batok East Ave 3 #01-427 S6502",
    "postal_code": "650285"
  },
  {
    "name": "Gangsa Road",
    "description": "HDB Public Shelter",
    "address": "Blk 171A Gangsa Road #01-50 S6711",
    "postal_code": "671171"
  },
  {
    "name": "Fajar Road",
    "description": "HDB Public Shelter",
    "address": "Blk 436 Fajar Road #B1-384 S6704",
    "postal_code": "670436"
  },
  {
    "name": "Fajar Road",
    "description": "HDB Public Shelter",
    "address": "Blk 438 Fajar Road #B1-412 S6704",
    "postal_code": "670438"
  },
  {
    "name": "Fajar Road",
    "description": "HDB Public Shelter",
    "address": "Blk 439 Fajar Road #B1-428 S6704",
    "postal_code": "670439"
  },
  {
    "name": "Fajar Road",
    "description": "HDB Public Shelter",
    "address": "Blk 441 Fajar Road #B1-466 S6704",
    "postal_code": "670441"
  },
  {
    "name": "Fajar Road",
    "description": "HDB Public Shelter",
    "address": "Blk 442 Fajar Rd #01-482 S4794",
    "postal_code": "670442"
  },
  {
    "name": "Fajar Road",
    "description": "HDB Public Shelter",
    "address": "Blk 451 Fajar Road #01-726 S6704",
    "postal_code": "670451"
  },
  {
    "name": "Fajar Road",
    "description": "HDB Public Shelter",
    "address": "Blk 453 Fajar Rd #01-702 S6704",
    "postal_code": "670453"
  },
  {
    "name": "Jelapang Road",
    "description": "HDB Public Shelter",
    "address": "Blk 501 Jelapang Road #01-420 S(67050",
    "postal_code": "670501"
  },
  {
    "name": "Jelapang Road",
    "description": "HDB Public Shelter",
    "address": "Blk 505 Jelapang Road #01-448 S6705",
    "postal_code": "670505"
  },
  {
    "name": "Jalan Teck Whye",
    "description": "HDB Public Shelter",
    "address": "Blk 150 Jalan Teck Whye #01-43 S6801",
    "postal_code": "680150"
  },
  {
    "name": "Jalan Teck Whye",
    "description": "HDB Public Shelter",
    "address": "Blk 151 Jalan Teck Whye #01-29 S6801",
    "postal_code": "680151"
  },
  {
    "name": "Jalan Teck Whye",
    "description": "HDB Public Shelter",
    "address": "Blk 163 Jalan Teck Whye #01-220 S6801",
    "postal_code": "680163"
  },
  {
    "name": "Choa Chu Kang Ave 1",
    "description": "HDB Public Shelter",
    "address": "Blk 202 Choa Chu Kang Ave 1 #B1-63 S6802",
    "postal_code": "680202"
  },
  {
    "name": "Choa Chu Kang Ave 1",
    "description": "HDB Public Shelter",
    "address": "Blk 203 Choa Chu Kang Ave 1 #B1-41 S6802",
    "postal_code": "680203"
  },
  {
    "name": "Choa Chu Kang Ave 1",
    "description": "HDB Public Shelter",
    "address": "Blk 204 Choa Chu Kang Ave 1 #B1-15 S6802",
    "postal_code": "680204"
  },
  {
    "name": "Choa Chu Kang Central",
    "description": "HDB Public Shelter",
    "address": "Blk 207 Choa Chu Kang Central #B1-08 S6802",
    "postal_code": "680207"
  },
  {
    "name": "Choa Chu Kang Central",
    "description": "HDB Public Shelter",
    "address": "Blk 208 Choa Chu Kang Central #B1-82 S6802",
    "postal_code": "680208"
  },
  {
    "name": "Choa Chu Kang Central",
    "description": "HDB Public Shelter",
    "address": "Blk 210 Choa Chu Kang Central #B1-162 S6802",
    "postal_code": "680210"
  },
  {
    "name": "Choa Chu Kang Central",
    "description": "HDB Public Shelter",
    "address": "Blk 211 Choa Chu Kang Central #B1-120 S6802",
    "postal_code": "680211"
  },
  {
    "name": "Choa Chu Kang Central",
    "description": "HDB Public Shelter",
    "address": "Blk 214 Choa Chu Kang Central #B1-230 S6802",
    "postal_code": "680214"
  },
  {
    "name": "Choa Chu Kang Central",
    "description": "HDB Public Shelter",
    "address": "Blk 215 Choa Chu Kang Central #B1-186 S6802",
    "postal_code": "680215"
  },
  {
    "name": "Choa Chu Kang Central",
    "description": "HDB Public Shelter",
    "address": "Blk 217 Choa Chu Kang Central #B1-212 S6802",
    "postal_code": "680217"
  },
  {
    "name": "Choa Chu Kang Central",
    "description": "HDB Public Shelter",
    "address": "Blk 218 Choa Chu Kang Central #B1-250 S6802",
    "postal_code": "680218"
  },
  {
    "name": "Choa Chu Kang Central",
    "description": "HDB Public Shelter",
    "address": "Blk 219 Choa Chu Kang Central #B1-256 S6802",
    "postal_code": "680219"
  },
  {
    "name": "Choa Chu Kang Central",
    "description": "HDB Public Shelter",
    "address": "Blk 220 Choa Chu Kang Central #B1-266 S6802",
    "postal_code": "680220"
  },
  {
    "name": "Choa Chu Kang Central",
    "description": "HDB Public Shelter",
    "address": "Blk 230 Choa Chu Kang Central #B1-163 S6802",
    "postal_code": "680230"
  },
  {
    "name": "Choa Chu Kang Central",
    "description": "HDB Public Shelter",
    "address": "Blk 232 Choa Chu Kang Central #B1-127 S6802",
    "postal_code": "680232"
  },
  {
    "name": "Choa Chu Kang Central",
    "description": "HDB Public Shelter",
    "address": "Blk 233 Choa Chu Kang Central #B1-97 S6802",
    "postal_code": "680233"
  },
  {
    "name": "Choa Chu Kang Central",
    "description": "HDB Public Shelter",
    "address": "Blk 235 Choa Chu Kang Central #B1-25 S6802",
    "postal_code": "680235"
  },
  {
    "name": "Choa Chu Kang Central",
    "description": "HDB Public Shelter",
    "address": "Blk 237 Choa Chu Kang Central #B1-63 S6802",
    "postal_code": "680237"
  },
  {
    "name": "Choa Chu Kang Ave 2",
    "description": "HDB Public Shelter",
    "address": "Blk 252 Choa Chu Kang Ave 2 #01-304 S6802",
    "postal_code": "680252"
  },
  {
    "name": "Choa Chu Kang Ave 2",
    "description": "HDB Public Shelter",
    "address": "Blk 273 Choa Chu Kang Ave 2 #01-241 S6802",
    "postal_code": "680273"
  },
  {
    "name": "Choa Chu Kang St 51",
    "description": "HDB Public Shelter",
    "address": "Blk 516 Choa Chu Kang St 51 #01-66 S6805",
    "postal_code": "680516"
  },
  {
    "name": "Choa Chu Kang St 51",
    "description": "HDB Public Shelter",
    "address": "Blk 517 Choa Chu Kang Street 51 #01-30 S6805",
    "postal_code": "680517"
  },
  {
    "name": "Choa Chu Kang St 51",
    "description": "HDB Public Shelter",
    "address": "Blk 530 Choa Chu Kang St 51 #01-323 S6805",
    "postal_code": "680530"
  },
  {
    "name": "Choa Chu Kang Ave 3",
    "description": "HDB Public Shelter",
    "address": "Blk 284 Choa Chu Kang Ave 3 #B1-330 S6802",
    "postal_code": "680284"
  },
  {
    "name": "Choa Chu Kang Ave 3",
    "description": "HDB Public Shelter",
    "address": "Blk 285 Choa Chu Kang Ave 3 #B1-298 S6802",
    "postal_code": "680285"
  },
  {
    "name": "Choa Chu Kang Ave 3",
    "description": "HDB Public Shelter",
    "address": "Blk 286 Choa Chu Kang Ave 3 #B1-318 S6802",
    "postal_code": "680286"
  },
  {
    "name": "Choa Chu Kang Ave 2",
    "description": "HDB Public Shelter",
    "address": "Blk 287 Choa Chu Kang Ave 2 #B1-203 S6802",
    "postal_code": "680287"
  },
  {
    "name": "Choa Chu Kang Ave 3",
    "description": "HDB Public Shelter",
    "address": "Blk 288 Choa Chu Kang Ave 3 #B1-288 S6802",
    "postal_code": "680288"
  },
  {
    "name": "Choa Chu Kang Ave 3",
    "description": "HDB Public Shelter",
    "address": "Blk 289 Choa Chu Kang Ave 3 #B1-268 S6802",
    "postal_code": "680289"
  },
  {
    "name": "Choa Chu Kang Ave 3",
    "description": "HDB Public Shelter",
    "address": "Blk 294 Choa Chu Kang Ave 3 #B1-177 S6802",
    "postal_code": "680294"
  },
  {
    "name": "Choa Chu Kang Ave 2",
    "description": "HDB Public Shelter",
    "address": "Blk 295 Choa Chu Kang Ave 2 #B1-157 S6802",
    "postal_code": "680295"
  },
  {
    "name": "Choa Chu Kang Ave 2",
    "description": "HDB Public Shelter",
    "address": "Blk 296 Choa Chu Kang Ave 2 #01-12 S6802",
    "postal_code": "680296"
  },
  {
    "name": "Choa Chu Kang Ave 2",
    "description": "HDB Public Shelter",
    "address": "Blk 297C Choa Chu Kang Ave 2 #01-96 S6802",
    "postal_code": "680297"
  },
  {
    "name": "Choa Chu Kang Loop",
    "description": "HDB Public Shelter",
    "address": "Blk 340 Choa Chu Kang Loop #01-09 S6803",
    "postal_code": "680340"
  },
  {
    "name": "Choa Chu Kang Ave 4",
    "description": "HDB Public Shelter",
    "address": "Blk 445 Choa Chu Kang Ave 4 #01-307 S(68044",
    "postal_code": "680445"
  },
  {
    "name": "Choa Chu Kang Ave 4",
    "description": "HDB Public Shelter",
    "address": "Blk 447 Choa Chu Kang Ave 4 #01-371 S(68044",
    "postal_code": "680447"
  },
  {
    "name": "Jurong West St 71",
    "description": "HDB Public Shelter",
    "address": "Blk 705 Jurong West St 71 #01-78 S6407",
    "postal_code": "640705"
  },
  {
    "name": "Jurong West St 71",
    "description": "HDB Public Shelter",
    "address": "Blk 709 Jurong West St 71 #01-34 S6407",
    "postal_code": "640709"
  },
  {
    "name": "Jurong West St 71",
    "description": "HDB Public Shelter",
    "address": "Blk 711 Jurong West Street 71 #B1-11 S6407",
    "postal_code": "640711"
  },
  {
    "name": "Jurong West St 71",
    "description": "HDB Public Shelter",
    "address": "Blk 713 Jurong West Street 71 #B1-37 S6407",
    "postal_code": "640713"
  },
  {
    "name": "Jurong West St 71",
    "description": "HDB Public Shelter",
    "address": "Blk 714 Jurong West St 71 #B1-147 S6407",
    "postal_code": "640714"
  },
  {
    "name": "Jurong West St 71",
    "description": "HDB Public Shelter",
    "address": "Blk 715 Jurong West St 71 #B1-51 S6407",
    "postal_code": "640715"
  },
  {
    "name": "Jurong West St 71",
    "description": "HDB Public Shelter",
    "address": "Blk 716 Jurong West Street 71 #B1-73 S6407",
    "postal_code": "640716"
  },
  {
    "name": "Jurong West St 71",
    "description": "HDB Public Shelter",
    "address": "Blk 717 Jurong West St 71 #B1-107 S6407",
    "postal_code": "640717"
  },
  {
    "name": "Jurong West St 71",
    "description": "HDB Public Shelter",
    "address": "Blk 718 Jurong West Street 71 #B1-99 S6407",
    "postal_code": "640718"
  },
  {
    "name": "Jurong West Ave 5",
    "description": "HDB Public Shelter",
    "address": "Blk 720 Jurong West Ave 5 #B1-94 S6407",
    "postal_code": "640720"
  },
  {
    "name": "Jurong West Street 81",
    "description": "HDB Public Shelter",
    "address": "Blk 721 Jurong West Street 81 #B1-102 S6407",
    "postal_code": "640721"
  },
  {
    "name": "Jurong West Street 71",
    "description": "HDB Public Shelter",
    "address": "Blk 722 Jurong West St 71 #B1-132 S6407",
    "postal_code": "640722"
  },
  {
    "name": "Jurong West Ave 5",
    "description": "HDB Public Shelter",
    "address": "Blk 723 Jurong West Ave 5 #B1-144 S6407",
    "postal_code": "640723"
  },
  {
    "name": "Jurong West Street 72",
    "description": "HDB Public Shelter",
    "address": "Blk 724 Jurong West Street 72 #B1-13 S6407",
    "postal_code": "640724"
  },
  {
    "name": "Jurong West Ave 5",
    "description": "HDB Public Shelter",
    "address": "Blk 725 Jurong West Ave 5 #B1-164 S6407",
    "postal_code": "640725"
  },
  {
    "name": "Jurong West Ave 5",
    "description": "HDB Public Shelter",
    "address": "Blk 727 Jurong West Ave 5 #B1-182 S6407",
    "postal_code": "640727"
  },
  {
    "name": "Jurong West Ave 5",
    "description": "HDB Public Shelter",
    "address": "Blk 728 Jurong West Ave 5 #B1-198 S6407",
    "postal_code": "640728"
  },
  {
    "name": "Jurong West Ave 5",
    "description": "HDB Public Shelter",
    "address": "Blk 729 Jurong West Ave 5 #B1-214 S6407",
    "postal_code": "640729"
  },
  {
    "name": "Jurong West Street 72",
    "description": "HDB Public Shelter",
    "address": "Blk 730 Jurong West Street 72 #B1-45 S6407",
    "postal_code": "640730"
  },
  {
    "name": "Jurong West Street 72",
    "description": "HDB Public Shelter",
    "address": "Blk 731 Jurong West St 72 #B1-29 S6407",
    "postal_code": "640731"
  },
  {
    "name": "Jurong West Street 73",
    "description": "HDB Public Shelter",
    "address": "Blk 732 Jurong West Street 73 #01-48 S6407",
    "postal_code": "640732"
  },
  {
    "name": "Jurong West St 75",
    "description": "HDB Public Shelter",
    "address": "Blk 735 Jurong West St 75 #01-19 S6407",
    "postal_code": "640735"
  },
  {
    "name": "Jurong West Street 73",
    "description": "HDB Public Shelter",
    "address": "Blk 743 Jurong West St 73 #B1-03 S6407",
    "postal_code": "640743"
  },
  {
    "name": "Jurong West Street 73",
    "description": "HDB Public Shelter",
    "address": "Blk 745 Jurong West St 73 #B1-57 S6407",
    "postal_code": "640745"
  },
  {
    "name": "Jurong West Street 73",
    "description": "HDB Public Shelter",
    "address": "Blk 746 Jurong West St 73 #B1-111 S6407",
    "postal_code": "640746"
  },
  {
    "name": "Jurong West Street 73",
    "description": "HDB Public Shelter",
    "address": "Blk 748 Jurong West St 73 #B1-127 S6407",
    "postal_code": "640748"
  },
  {
    "name": "Jurong West Street 73",
    "description": "HDB Public Shelter",
    "address": "Blk 749 Jurong West St 73 #B1-145 S6407",
    "postal_code": "640749"
  },
  {
    "name": "Jurong West Street 73",
    "description": "HDB Public Shelter",
    "address": "Blk 751 Jurong West St 73 #B1-175 S6407",
    "postal_code": "640751"
  },
  {
    "name": "Jurong West St 74",
    "description": "HDB Public Shelter",
    "address": "Blk 760 Jurong West St 74 #01-08 S6407",
    "postal_code": "640760"
  },
  {
    "name": "Jurong West St 81",
    "description": "HDB Public Shelter",
    "address": "Blk 810 Jurong West St 81 #01-88 S6408",
    "postal_code": "640810"
  },
  {
    "name": "Jurong West St 81",
    "description": "HDB Public Shelter",
    "address": "Blk 811 Jurong West St 81 #01-64 S6408",
    "postal_code": "640811"
  },
  {
    "name": "Jurong West St 81",
    "description": "HDB Public Shelter",
    "address": "Blk 812 Jurong West St 81 #B1-164 S6408",
    "postal_code": "640812"
  },
  {
    "name": "Jurong West St 81",
    "description": "HDB Public Shelter",
    "address": "Blk 813 Jurong West St 81 #B1-184 S6408",
    "postal_code": "640813"
  },
  {
    "name": "Jurong West St 81",
    "description": "HDB Public Shelter",
    "address": "Blk 814 Jurong West St 81 #B1-204, S6408",
    "postal_code": "640814"
  },
  {
    "name": "Jurong West St 81",
    "description": "HDB Public Shelter",
    "address": "Blk 815 Jurong West St 81 #B1-222 S6408",
    "postal_code": "640815"
  },
  {
    "name": "Jurong West St 81",
    "description": "HDB Public Shelter",
    "address": "Blk 816 Jurong West St 81 #01-44 S6408",
    "postal_code": "640816"
  },
  {
    "name": "Jurong West St 81",
    "description": "HDB Public Shelter",
    "address": "Blk 821 Jurong West St 81 #B1-490 S6408",
    "postal_code": "640821"
  },
  {
    "name": "Jurong West St 81",
    "description": "HDB Public Shelter",
    "address": "Blk 823 Jurong West Street 81 #B1-462 S6408",
    "postal_code": "640823"
  },
  {
    "name": "Jurong West St 81",
    "description": "HDB Public Shelter",
    "address": "Blk 824 Jurong West Street 81 #B1-444 S6408",
    "postal_code": "640824"
  },
  {
    "name": "Jurong West St 81",
    "description": "HDB Public Shelter",
    "address": "Blk 826 Jurong West St 81 #B1-424 S6408",
    "postal_code": "640826"
  },
  {
    "name": "Jurong West St 81",
    "description": "HDB Public Shelter",
    "address": "Blk 835 Jurong West Street 81 #B1-45 S6408",
    "postal_code": "640835"
  },
  {
    "name": "Jurong West St 81",
    "description": "HDB Public Shelter",
    "address": "Blk 836 Jurong West St 81 #01-65 S6408",
    "postal_code": "640836"
  },
  {
    "name": "Jurong West St 81",
    "description": "HDB Public Shelter",
    "address": "Blk 838 Jurong West St 81 #B1-153 S6408",
    "postal_code": "640838"
  },
  {
    "name": "Jurong West St 81",
    "description": "HDB Public Shelter",
    "address": "Blk 840 Jurong West St 81 #01-107 S6408",
    "postal_code": "640840"
  },
  {
    "name": "Jurong West St 81",
    "description": "HDB Public Shelter",
    "address": "Blk 845 Jurong West St 81 #01-229 S6408",
    "postal_code": "640845"
  },
  {
    "name": "Jurong West St 81",
    "description": "HDB Public Shelter",
    "address": "Blk 850 Jurong West St 81 #01-267 S6408",
    "postal_code": "640850"
  },
  {
    "name": "Jurong West St 81",
    "description": "HDB Public Shelter",
    "address": "Blk 852 Jurong West St 81 #01-303 S6408",
    "postal_code": "640852"
  },
  {
    "name": "Jurong West St 81",
    "description": "HDB Public Shelter",
    "address": "Blk 854 Jurong West St 81 #01-502 S6408",
    "postal_code": "640854"
  },
  {
    "name": "Jurong West St 81",
    "description": "HDB Public Shelter",
    "address": "Blk 859 Jurong West St 81 #01-572 S6408",
    "postal_code": "640859"
  },
  {
    "name": "Jurong West St 81",
    "description": "HDB Public Shelter",
    "address": "Blk 863 Jurong West St 81 #01-515 S6408",
    "postal_code": "640863"
  },
  {
    "name": "Jurong West Central 1",
    "description": "HDB Public Shelter",
    "address": "Blk 690 Jurong West Central 1 #01-193 S6406",
    "postal_code": "640690"
  },
  {
    "name": "Jurong West Central 1",
    "description": "HDB Public Shelter",
    "address": "Blk 691 Jurong West Central 1 #01-185 S6406",
    "postal_code": "640691"
  },
  {
    "name": "Jurong West Central 1",
    "description": "HDB Public Shelter",
    "address": "Blk 692 Jurong West Central 1 #01-81 S(64069",
    "postal_code": "640692"
  },
  {
    "name": "Jurong West Central 1",
    "description": "HDB Public Shelter",
    "address": "Blk 694 Jurong West Central 1 #01-191 S6406",
    "postal_code": "640694"
  },
  {
    "name": "Yung Ho Road",
    "description": "HDB Public Shelter",
    "address": "Blk 151 Yung Ho Road #B1-91 S6101",
    "postal_code": "610151"
  },
  {
    "name": "Yung Ho Road",
    "description": "HDB Public Shelter",
    "address": "Blk 152 Yung Ho Road #B1-03 S6101",
    "postal_code": "610152"
  },
  {
    "name": "Yung Ho Road",
    "description": "HDB Public Shelter",
    "address": "Blk 153 Yung Ho Road #B1-35 S6101",
    "postal_code": "610153"
  },
  {
    "name": "Yung Ho Road",
    "description": "HDB Public Shelter",
    "address": "Blk 154 Yung Ho Road #B1-51 S6101",
    "postal_code": "610154"
  },
  {
    "name": "Yung Loh Road",
    "description": "HDB Public Shelter",
    "address": "Blk 156 Yung Loh Road #01-12 S6101",
    "postal_code": "610155"
  },
  {
    "name": "Yung Ping Rd",
    "description": "HDB Public Shelter",
    "address": "Blk 163 Yung Ping Rd #01-90 S(61016",
    "postal_code": "610163"
  },
  {
    "name": "Tah Ching Rd",
    "description": "HDB Public Shelter",
    "address": "Blk 323 Tah Ching Rd #01-62 S6103",
    "postal_code": "610323"
  },
  {
    "name": "Tah Ching Rd",
    "description": "HDB Public Shelter",
    "address": "Blk 324 Tah Ching Rd #01-46 S6103",
    "postal_code": "610324"
  },
  {
    "name": "Tah Ching Rd",
    "description": "HDB Public Shelter",
    "address": "Blk 332 Tah Ching Rd #01-169 S6103",
    "postal_code": "610332"
  },
  {
    "name": "Kang Ching Road",
    "description": "HDB Public Shelter",
    "address": "Blk 347 Kang Ching Road #01-145 S(61034",
    "postal_code": "610347"
  },
  {
    "name": "Corporation Drive",
    "description": "HDB Public Shelter",
    "address": "Blk 351 Corporation Drive #01-520 S6103",
    "postal_code": "610351"
  },
  {
    "name": "Kang Ching Road",
    "description": "HDB Public Shelter",
    "address": "Blk 353 Kang Ching Road #01-39 S6103",
    "postal_code": "610353"
  },
  {
    "name": "Yung An Road",
    "description": "HDB Public Shelter",
    "address": "Blk 359 Yung An Road #01-79 S6103",
    "postal_code": "610359"
  },
  {
    "name": "Yung An Road",
    "description": "HDB Public Shelter",
    "address": "Blk 362 Yung An Road #01-131 S6103",
    "postal_code": "610362"
  },
  {
    "name": "Corporation Drive",
    "description": "HDB Public Shelter",
    "address": "Blk 368 Corporation Drive #01-465 S6103",
    "postal_code": "610368"
  },
  {
    "name": "Woodlands Ave 1",
    "description": "HDB Public Shelter",
    "address": "Blk 351 Woodlands Ave 1 #01-721 S7303",
    "postal_code": "730351"
  },
  {
    "name": "Woodlands Ave 1",
    "description": "HDB Public Shelter",
    "address": "Blk 355 Woodlands Ave 1 #01-707 S7303",
    "postal_code": "730355"
  },
  {
    "name": "Woodlands Ave 5",
    "description": "HDB Public Shelter",
    "address": "Blk 363 Woodlands Ave 5 #01-440 S7303",
    "postal_code": "730363"
  },
  {
    "name": "Woodlands Ave 1",
    "description": "HDB Public Shelter",
    "address": "Blk 368 Woodlands Ave 1 #01-807 S7303",
    "postal_code": "730368"
  },
  {
    "name": "Woodlands St 41",
    "description": "HDB Public Shelter",
    "address": "Blk 401 Woodlands St 41 #01-30 S7304",
    "postal_code": "730401"
  },
  {
    "name": "Woodlands St 41",
    "description": "HDB Public Shelter",
    "address": "Blk 408 Woodlands St 41 #01-09 S7304",
    "postal_code": "730408"
  },
  {
    "name": "Woodlands St 41",
    "description": "HDB Public Shelter",
    "address": "Blk 418 Woodlands St 41 #01-131 S7304",
    "postal_code": "730418"
  },
  {
    "name": "Woodlands St 41",
    "description": "HDB Public Shelter",
    "address": "Blk 424 Woodlands St 41 #01-340 S7304",
    "postal_code": "730424"
  },
  {
    "name": "Woodlands Dr 42",
    "description": "HDB Public Shelter",
    "address": "Blk 601 Woodlands Dr 42 #01-83 S7306",
    "postal_code": "730601"
  },
  {
    "name": "Woodlands Dr 42",
    "description": "HDB Public Shelter",
    "address": "Blk 605 Woodlands Dr 42 #01-105 S7306",
    "postal_code": "730605"
  },
  {
    "name": "Woodlands St 81",
    "description": "HDB Public Shelter",
    "address": "Blk 810 Woodlands St 81 #01-191A S7308",
    "postal_code": "730810"
  },
  {
    "name": "Woodlands St 81",
    "description": "HDB Public Shelter",
    "address": "Blk 827 Woodlands St 81 #01-92 S7308",
    "postal_code": "730827"
  },
  {
    "name": "Woodlands Ave 4",
    "description": "HDB Public Shelter",
    "address": "Blk 846 Woodlands Ave 4 #01-612 S7308",
    "postal_code": "730846"
  },
  {
    "name": "Woodlands Street 83",
    "description": "HDB Public Shelter",
    "address": "Blk 851 Woodlands Street 83 #01-18 S7308",
    "postal_code": "730851"
  },
  {
    "name": "Woodlands Street 83",
    "description": "HDB Public Shelter",
    "address": "Blk 859 Woodlands St 83 #01-140 S7308",
    "postal_code": "730859"
  },
  {
    "name": "Woodlands Street 81",
    "description": "HDB Public Shelter",
    "address": "Blk 871 Woodlands Street 81 #01-292 S7308",
    "postal_code": "730871"
  },
  {
    "name": "Woodlands Ave 9",
    "description": "HDB Public Shelter",
    "address": "Blk 876 Woodlands Ave 9 #01-256 S7308",
    "postal_code": "730876"
  },
  {
    "name": "Woodlands Street 82",
    "description": "HDB Public Shelter",
    "address": "Blk 880 Woodlands St 82 #01-08 S7308",
    "postal_code": "730880"
  },
  {
    "name": "Woodlands Dr 50",
    "description": "HDB Public Shelter",
    "address": "Blk 892A Woodlands Dr 50 #01-153 S7308",
    "postal_code": "730892"
  },
  {
    "name": "Woodlands Dr 50",
    "description": "HDB Public Shelter",
    "address": "Blk 894B Woodlands Dr 50 #01-49 S7318",
    "postal_code": "731894"
  },
  {
    "name": "Woodlands Dr 50",
    "description": "HDB Public Shelter",
    "address": "Blk 895B Woodlands Dr 50 #01-24 S7318",
    "postal_code": "731894"
  },
  {
    "name": "Woodlands Dr 50",
    "description": "HDB Public Shelter",
    "address": "Blk 897A Woodlands Dr 50 #01-50 S7308",
    "postal_code": "730897"
  },
  {
    "name": "Woodlands Dr 50",
    "description": "HDB Public Shelter",
    "address": "Blk 899A Woodlands Dr 50 #01-250 S7308",
    "postal_code": "730899"
  },
  {
    "name": "Woodlands Dr 50",
    "description": "HDB Public Shelter",
    "address": "Blk 899C Woodlands Dr 50 #01-296 S7328",
    "postal_code": "732899"
  },
  {
    "name": "Choa Chu Kang St 51",
    "description": "HDB Public Shelter",
    "address": "Blk 504 Choa Chu Kang St 51 #01-173 S6805",
    "postal_code": "680504"
  },
  {
    "name": "Choa Chu Kang St 51",
    "description": "HDB Public Shelter",
    "address": "Blk 505 Choa Chu Kang St 51 #01-191 S6805",
    "postal_code": "680505"
  },
  {
    "name": "Choa Chu Kang St 52",
    "description": "HDB Public Shelter",
    "address": "Blk 541 Choa Chu Kang St 52 #01-46 S6805",
    "postal_code": "680541"
  },
  {
    "name": "Blk 544 Choa Chu Kang St 52 #01-88 S680544",
    "description": "HDB Public Shelter",
    "address": "Blk 544 Choa Chu Kang St 52 #01-88 S6805",
    "postal_code": "680544"
  },
  {
    "name": "Blk 544 Choa Chu Kang St 52 #01-88 S680544",
    "description": "HDB Public Shelter",
    "address": "Blk 549 Choa Chu Kang St 52 #01-13 S6805",
    "postal_code": "680549"
  },
  {
    "name": "Choa Chu Kang North 6",
    "description": "HDB Public Shelter",
    "address": "Blk 555 Choa Chu Kang North 6 #01-34 S6805",
    "postal_code": "680555"
  },
  {
    "name": "Choa Chu Kang North 6",
    "description": "HDB Public Shelter",
    "address": "Blk 561 Choa Chu Kang North 6 #01-82 S6805",
    "postal_code": "680561"
  },
  {
    "name": "Choa Chu Kang St 62",
    "description": "HDB Public Shelter",
    "address": "Blk 601 Choa Chu Kang St 62 #01-09 S6806",
    "postal_code": "680601"
  },
  {
    "name": "Choa Chu Kang St 62",
    "description": "HDB Public Shelter",
    "address": "Blk 610 Choa Chu Kang St 62 #01-161 S6806",
    "postal_code": "680610"
  },
  {
    "name": "Choa Chu Kang St 62",
    "description": "HDB Public Shelter",
    "address": "Blk 614 Choa Chu Kang St 62 #01-233 S6806",
    "postal_code": "680614"
  },
  {
    "name": "Choa Chu Kang St 62",
    "description": "HDB Public Shelter",
    "address": "Blk 620 Choa Chu Kang St 62 #01-18 S6806",
    "postal_code": "680620"
  },
  {
    "name": "Choa Chu Kang St 62",
    "description": "HDB Public Shelter",
    "address": "Blk 626 Choa Chu Kang St 62 #01-180 S6806",
    "postal_code": "680626"
  },
  {
    "name": "Choa Chu Kang North 6",
    "description": "HDB Public Shelter",
    "address": "Blk 632A Choa Chu Kang North 6 #B1-01 S6816",
    "postal_code": "681632"
  },
  {
    "name": "Choa Chu Kang St 64",
    "description": "HDB Public Shelter",
    "address": "Blk 639 Choa Chu Kang St 64 #01-31 S6806",
    "postal_code": "680639"
  },
  {
    "name": "Choa Chu Kang Street 64",
    "description": "HDB Public Shelter",
    "address": "Blk 642 Choa Chu Kang Street 64 #01-65 S6806",
    "postal_code": "680642"
  },
  {
    "name": "Choa Chu Kang Crescent",
    "description": "HDB Public Shelter",
    "address": "Blk 660 Choa Chu Kang Crescent #01-93 S6806",
    "postal_code": "680660"
  },
  {
    "name": "Choa Chu Kang St 53",
    "description": "HDB Public Shelter",
    "address": "Blk 704 Choa Chu Kang St 53 #01-80 S6807",
    "postal_code": "680704"
  },
  {
    "name": "Choa Chu Kang St 53",
    "description": "HDB Public Shelter",
    "address": "Blk 707 Choa Chu Kang St 53 #01-118 S6807",
    "postal_code": "680707"
  },
  {
    "name": "Choa Chu Kang North 5",
    "description": "HDB Public Shelter",
    "address": "Blk 753 Choa Chu Kang North 5 #01-213 S6807",
    "postal_code": "680753"
  },
  {
    "name": "Choa Chu Kang North 5",
    "description": "HDB Public Shelter",
    "address": "Blk 759 Choa Chu Kang North 5 #01-145 S6807",
    "postal_code": "680759"
  },
  {
    "name": "Choa Chu Kang North 5",
    "description": "HDB Public Shelter",
    "address": "Blk 764 Choa Chu Kang North 5 #01-275 S6807",
    "postal_code": "680764"
  },
  {
    "name": "Choa Chu Kang St 54",
    "description": "HDB Public Shelter",
    "address": "Blk 768 Choa Chu Kang St 54 #01-29 S6807",
    "postal_code": "680768"
  },
  {
    "name": "Choa Chu Kang Drive",
    "description": "HDB Public Shelter",
    "address": "Blk 785 Choa Chu Kang Drive #01-223 S6807",
    "postal_code": "680785"
  },
  {
    "name": "Choa Chu Kang North 6",
    "description": "HDB Public Shelter",
    "address": "Blk 790 Choa Chu Kang North 6 #01-238 S6807",
    "postal_code": "680790"
  },
  {
    "name": "St Gabriels Secondary",
    "description": "School Shelter",
    "address": "24 Serangoon Ave 1 (55614",
    "postal_code": "556140"
  },
  {
    "name": "Greenridge Secondary",
    "description": "School Shelter",
    "address": "32 Bukit Panjang Ring Road (67993",
    "postal_code": "679938"
  },
  {
    "name": "Anderson Secondary",
    "description": "School Shelter",
    "address": "10 Ang Mo Kio Street 53 (56920",
    "postal_code": "569206"
  },
  {
    "name": "Damai Secondary",
    "description": "School Shelter",
    "address": "4800 Bedok Reservoir Road (47922",
    "postal_code": "479229"
  },
  {
    "name": "Dunearn Secondary",
    "description": "School Shelter",
    "address": "21 Bukit Batok West Ave2 (65920",
    "postal_code": "659204"
  },
  {
    "name": "Springfield Secondary",
    "description": "School Shelter",
    "address": "30 Tampines Avenue 8 (52959",
    "postal_code": "529593"
  },
  {
    "name": "Greenview Secondary",
    "description": "School Shelter",
    "address": "15 Pasir Ris Street 21 (51896",
    "postal_code": "518969"
  },
  {
    "name": "Northland Secondary",
    "description": "School Shelter",
    "address": "3 Yishun Street 22 (76857",
    "postal_code": "768578"
  },
  {
    "name": "Ngee Ann Secondary",
    "description": "School Shelter",
    "address": "1 Tampines Street 32 (52928",
    "postal_code": "529283"
  },
  {
    "name": "Hong Kah Secondary l",
    "description": "School Shelter",
    "address": "931 Jurong West Street 42 (64937",
    "postal_code": "649370"
  },
  {
    "name": "Peirce Secondary",
    "description": "School Shelter",
    "address": "10 Sin Ming Walk (57556",
    "postal_code": "575566"
  },
  {
    "name": "Fajar Secondary",
    "description": "School Shelter",
    "address": "31 Gangsa Road (67897",
    "postal_code": "678972"
  },
  {
    "name": "Crest Secondary",
    "description": "School Shelter",
    "address": "561 Jurong East Street 24 (60956",
    "postal_code": "609561"
  },
  {
    "name": "Kranji Secondary",
    "description": "School Shelter",
    "address": "61 Choa Chu Kang Street 51 (68933",
    "postal_code": "689333"
  },
  {
    "name": "Pioneer Secondary",
    "description": "School Shelter",
    "address": "21 Jurong West Street 81 (64907",
    "postal_code": "649075"
  },
  {
    "name": "Whitley Secondary",
    "description": "School Shelter",
    "address": "30 Bishan Street 24 (57974",
    "postal_code": "579747"
  },
  {
    "name": "Bukit Panjang Govt. High",
    "description": "School Shelter",
    "address": "7 Choa Chu Kang Avenue 4 (68980",
    "postal_code": "689809"
  },
  {
    "name": "Cresent Girls' Secondary",
    "description": "School Shelter",
    "address": "357 Tanglin Road (24796",
    "postal_code": "247961"
  },
  {
    "name": "Tanjong Katong Girls'",
    "description": "School Shelter",
    "address": "20 Dunman Lane (43712",
    "postal_code": "437126"
  },
  {
    "name": "Anglo-Chinese School (Junior)",
    "description": "School Shelter",
    "address": "16 Winstedt Road (22798",
    "postal_code": "227988"
  },
  {
    "name": "Tanglin Secondary",
    "description": "School Shelter",
    "address": "301 West Coast Road (12739",
    "postal_code": "127391"
  },
  {
    "name": "Cedar Girls School",
    "description": "School Shelter",
    "address": "1 Cedar Avenue (34969",
    "postal_code": "349692"
  },
  {
    "name": "Bartley Secondary",
    "description": "School Shelter",
    "address": "10 Jalan Bunga Rampai (53840",
    "postal_code": "538403"
  },
  {
    "name": "Dunman High",
    "description": "School Shelter",
    "address": "10 Tanjong Katong Rd (43689",
    "postal_code": "436895"
  },
  {
    "name": "Siglap Secondary",
    "description": "School Shelter",
    "address": "10 Pasir Ris Drive 10 (51938",
    "postal_code": "519385"
  },
  {
    "name": "Queenstown Secondary",
    "description": "School Shelter",
    "address": "1 Strathmore Road (14880",
    "postal_code": "148800"
  },
  {
    "name": "Balestier Hill Secondary",
    "description": "School Shelter",
    "address": "11 Novena Rise (30751",
    "postal_code": "307516"
  },
  {
    "name": "Henderson Secondary",
    "description": "School Shelter",
    "address": "100 Henderson Road (15954",
    "postal_code": "159544"
  },
  {
    "name": "Bendemeer Secondary",
    "description": "School Shelter",
    "address": "1 Saint Wilfred Road (32791",
    "postal_code": "327919"
  },
  {
    "name": "New Town Secondary",
    "description": "School Shelter",
    "address": "1020 Dover Road (13965",
    "postal_code": "139657"
  },
  {
    "name": "Tanjong Katong Secondary",
    "description": "School Shelter",
    "address": "130 Haig Road (43879",
    "postal_code": "438796"
  },
  {
    "name": "Woodlands Ring Secondary",
    "description": "School Shelter",
    "address": "10 Woodlands Ring Road (73823",
    "postal_code": "738239"
  },
  {
    "name": "Sembawang Secondary",
    "description": "School Shelter",
    "address": "30 Sembawang Crescent (75770",
    "postal_code": "757704"
  },
  {
    "name": "Hougang Secondary",
    "description": "School Shelter",
    "address": "2 Hougang Street 93 (53423",
    "postal_code": "534237"
  },
  {
    "name": "Woodsgrove Secondary",
    "description": "School Shelter",
    "address": "3 Woodlands Avenue 6 ( 73899",
    "postal_code": "738990"
  },
  {
    "name": "Orchid Park Secondary",
    "description": "School Shelter",
    "address": "10 Yishun Street 81 (76845",
    "postal_code": "768454"
  },
  {
    "name": "Zhonghua Secondary",
    "description": "School Shelter",
    "address": "13 Serangoon Ave 3 (55612",
    "postal_code": "556123"
  },
  {
    "name": "Sengkang Secondary",
    "description": "School Shelter",
    "address": "10 Compassvale Lane (54509",
    "postal_code": "545090"
  },
  {
    "name": "Yusof Ishak Secondary",
    "description": "School Shelter",
    "address": "11 Bukit Batok Street 25 (65871",
    "postal_code": "658712"
  },
  {
    "name": "Junyuan Secondary",
    "description": "School Shelter",
    "address": "11 Tampines Street 84 (52893",
    "postal_code": "528933"
  },
  {
    "name": "Temasek Secondary",
    "description": "School Shelter",
    "address": "600 Upper East Coast Road (46556",
    "postal_code": "465561"
  },
  {
    "name": "Hwa Chong Institution",
    "description": "School Shelter",
    "address": "661 Bukit Timah Road (26973",
    "postal_code": "269734"
  },
  {
    "name": "Unity Secondary",
    "description": "School Shelter",
    "address": "20 Choa Chu Kang Site Street 62 (68914",
    "postal_code": "689143"
  },
  {
    "name": "Boon Lay Secondary",
    "description": "School Shelter",
    "address": "11Jurong West Street 65 (64835",
    "postal_code": "648354"
  },
  {
    "name": "Coral Secondary",
    "description": "School Shelter",
    "address": "31 Pasir Ris Street 51 (51890",
    "postal_code": "518901"
  },
  {
    "name": "Northbrook Secondary",
    "description": "School Shelter",
    "address": "585 Yishun Ring Road (76869",
    "postal_code": "768692"
  },
  {
    "name": "Bedok North Secondary",
    "description": "School Shelter",
    "address": "20 Jalan Damai (41961",
    "postal_code": "419612"
  },
  {
    "name": "East Spring Secondary",
    "description": "School Shelter",
    "address": "30 Tampines Street 34 (52923",
    "postal_code": "529231"
  },
  {
    "name": "Clementi Woods Secondary",
    "description": "School Shelter",
    "address": "170 West Coast Road (12744",
    "postal_code": "127443"
  },
  {
    "name": "Pasir Ris Crescent Secondary",
    "description": "School Shelter",
    "address": "11 Pasir Ris Street 41 (51893",
    "postal_code": "518934"
  },
  {
    "name": "Changkat Changi Secondary",
    "description": "School Shelter",
    "address": "23 Simei Street 3 (52989",
    "postal_code": "529894"
  },
  {
    "name": "Chestnut Drive Secondary",
    "description": "School Shelter",
    "address": "58 Chestnut Drive (6793",
    "postal_code": "679301"
  },
  {
    "name": "Chong Boon Secondary",
    "description": "School Shelter",
    "address": "2 Ang Mo Kio Street 44 (56925",
    "postal_code": "569250"
  },
  {
    "name": "Kent Ridge Secondary",
    "description": "School Shelter",
    "address": "147 West Coast Road (12736",
    "postal_code": "127368"
  },
  {
    "name": "Teck Whye Secondary",
    "description": "School Shelter",
    "address": "31 Teck Whye Crescent (68884",
    "postal_code": "688848"
  },
  {
    "name": "Yio Chu Kang Secondary",
    "description": "School Shelter",
    "address": "3063 Ang Mo Kio Avenue 5 (56986",
    "postal_code": "569868"
  },
  {
    "name": "Bedok South Secondary",
    "description": "School Shelter",
    "address": "1 Jalan Langgar Bedok (46858",
    "postal_code": "468585"
  },
  {
    "name": "Bukit Merah Secondary",
    "description": "School Shelter",
    "address": "10 Lengkok Bahru (15905",
    "postal_code": "159050"
  },
  {
    "name": "Macpherson Secondary",
    "description": "School Shelter",
    "address": "121 Circuit Road (37949",
    "postal_code": "379499"
  },
  {
    "name": "Deyi Secondary",
    "description": "School Shelter",
    "address": "1 Ang Mo Kio Street 42 (56927",
    "postal_code": "569277"
  },
  {
    "name": "Admiralty Secondary",
    "description": "School Shelter",
    "address": "31 Woodlands Crescent (73791",
    "postal_code": "737916"
  }
]
